<gpx xmlns="http://www.topografix.com/GPX/1/0" xmlns:xsi="http://www.w3.org/2001/XMLSchema-instance" version="1.0" creator="BasicAirData GPS Logger 3.2.3" xsi:schemaLocation="http://www.topografix.com/GPX/1/0 http://www.topografix.com/GPX/1/0/gpx.xsd">
<name>GPS Logger 20250224-150755</name>
<desc>A02241 part 1</desc>
<time>2025-02-24T09:46:41Z</time>
<keywords>car</keywords>
<bounds minlat="31.69909871" minlon="74.86356648" maxlat="31.70329938" maxlon="74.88023741"/>

<trk>
 <name>Track 20250224-150755</name>
 <trkseg>
  <trkpt lat="31.70329938" lon="74.86358441"><ele>191.000</ele><time>2025-02-24T15:07:55Z</time><speed>0.010</speed><sat>31</sat></trkpt>
  <trkpt lat="31.70329134" lon="74.86356648"><ele>190.000</ele><time>2025-02-24T15:07:56Z</time><speed>0.000</speed><sat>30</sat></trkpt>
  <trkpt lat="31.70329134" lon="74.86356648"><ele>190.000</ele><time>2025-02-24T15:07:57Z</time><speed>0.000</speed><sat>31</sat></trkpt>
  <trkpt lat="31.70328970" lon="74.86356706"><ele>189.000</ele><time>2025-02-24T15:07:58Z</time><speed>0.720</speed><sat>32</sat></trkpt>
  <trkpt lat="31.70328794" lon="74.86357779"><ele>188.000</ele><time>2025-02-24T15:07:59Z</time><speed>0.820</speed><sat>32</sat></trkpt>
  <trkpt lat="31.70328886" lon="74.86359330"><ele>187.000</ele><time>2025-02-24T15:08:00Z</time><speed>1.840</speed><sat>32</sat></trkpt>
  <trkpt lat="31.70329368" lon="74.86361199"><ele>186.000</ele><time>2025-02-24T15:08:01Z</time><speed>1.950</speed><sat>32</sat></trkpt>
  <trkpt lat="31.70329289" lon="74.86364175"><ele>185.000</ele><time>2025-02-24T15:08:02Z</time><speed>3.290</speed><sat>32</sat></trkpt>
  <trkpt lat="31.70328551" lon="74.86368332"><ele>185.000</ele><time>2025-02-24T15:08:03Z</time><speed>3.850</speed><sat>32</sat></trkpt>
  <trkpt lat="31.70327730" lon="74.86372255"><ele>185.000</ele><time>2025-02-24T15:08:04Z</time><speed>4.040</speed><sat>31</sat></trkpt>
  <trkpt lat="31.70325898" lon="74.86381550"><ele>188.000</ele><time>2025-02-24T15:08:06Z</time><speed>4.540</speed><sat>31</sat></trkpt>
  <trkpt lat="31.70325010" lon="74.86386999"><ele>189.000</ele><time>2025-02-24T15:08:07Z</time><speed>4.840</speed><sat>32</sat></trkpt>
  <trkpt lat="31.70323995" lon="74.86392120"><ele>189.000</ele><time>2025-02-24T15:08:08Z</time><speed>4.690</speed><sat>31</sat></trkpt>
  <trkpt lat="31.70323237" lon="74.86397090"><ele>189.000</ele><time>2025-02-24T15:08:09Z</time><speed>4.590</speed><sat>32</sat></trkpt>
  <trkpt lat="31.70321016" lon="74.86407660"><ele>189.000</ele><time>2025-02-24T15:08:11Z</time><speed>5.930</speed><sat>31</sat></trkpt>
  <trkpt lat="31.70319934" lon="74.86414349"><ele>189.000</ele><time>2025-02-24T15:08:12Z</time><speed>6.330</speed><sat>32</sat></trkpt>
  <trkpt lat="31.70319025" lon="74.86420711"><ele>189.000</ele><time>2025-02-24T15:08:13Z</time><speed>6.280</speed><sat>32</sat></trkpt>
  <trkpt lat="31.70317948" lon="74.86427408"><ele>189.000</ele><time>2025-02-24T15:08:14Z</time><speed>6.230</speed><sat>32</sat></trkpt>
  <trkpt lat="31.70317072" lon="74.86433879"><ele>189.000</ele><time>2025-02-24T15:08:15Z</time><speed>5.960</speed><sat>32</sat></trkpt>
  <trkpt lat="31.70315651" lon="74.86439637"><ele>189.000</ele><time>2025-02-24T15:08:16Z</time><speed>6.010</speed><sat>31</sat></trkpt>
  <trkpt lat="31.70314746" lon="74.86445395"><ele>189.000</ele><time>2025-02-24T15:08:17Z</time><speed>5.800</speed><sat>30</sat></trkpt>
  <trkpt lat="31.70313916" lon="74.86450776"><ele>189.000</ele><time>2025-02-24T15:08:18Z</time><speed>5.180</speed><sat>30</sat></trkpt>
  <trkpt lat="31.70313229" lon="74.86455806"><ele>189.000</ele><time>2025-02-24T15:08:19Z</time><speed>4.110</speed><sat>32</sat></trkpt>
  <trkpt lat="31.70312667" lon="74.86459929"><ele>189.000</ele><time>2025-02-24T15:08:20Z</time><speed>3.730</speed><sat>31</sat></trkpt>
  <trkpt lat="31.70312034" lon="74.86463852"><ele>189.000</ele><time>2025-02-24T15:08:21Z</time><speed>4.030</speed><sat>32</sat></trkpt>
  <trkpt lat="31.70311423" lon="74.86468135"><ele>189.000</ele><time>2025-02-24T15:08:22Z</time><speed>4.480</speed><sat>31</sat></trkpt>
  <trkpt lat="31.70310622" lon="74.86473265"><ele>189.000</ele><time>2025-02-24T15:08:23Z</time><speed>5.190</speed><sat>32</sat></trkpt>
  <trkpt lat="31.70309943" lon="74.86478814"><ele>190.000</ele><time>2025-02-24T15:08:24Z</time><speed>6.050</speed><sat>32</sat></trkpt>
  <trkpt lat="31.70308677" lon="74.86485436"><ele>190.000</ele><time>2025-02-24T15:08:25Z</time><speed>6.430</speed><sat>32</sat></trkpt>
  <trkpt lat="31.70307169" lon="74.86492435"><ele>190.000</ele><time>2025-02-24T15:08:26Z</time><speed>6.850</speed><sat>32</sat></trkpt>
  <trkpt lat="31.70305744" lon="74.86499417"><ele>191.000</ele><time>2025-02-24T15:08:27Z</time><speed>7.120</speed><sat>31</sat></trkpt>
  <trkpt lat="31.70304499" lon="74.86507421"><ele>191.000</ele><time>2025-02-24T15:08:28Z</time><speed>7.110</speed><sat>32</sat></trkpt>
  <trkpt lat="31.70303372" lon="74.86515041"><ele>191.000</ele><time>2025-02-24T15:08:29Z</time><speed>7.570</speed><sat>30</sat></trkpt>
  <trkpt lat="31.70301729" lon="74.86523322"><ele>190.000</ele><time>2025-02-24T15:08:30Z</time><speed>7.950</speed><sat>31</sat></trkpt>
  <trkpt lat="31.70299847" lon="74.86532081"><ele>190.000</ele><time>2025-02-24T15:08:31Z</time><speed>8.370</speed><sat>31</sat></trkpt>
  <trkpt lat="31.70298087" lon="74.86540580"><ele>190.000</ele><time>2025-02-24T15:08:32Z</time><speed>8.120</speed><sat>32</sat></trkpt>
  <trkpt lat="31.70296406" lon="74.86548912"><ele>190.000</ele><time>2025-02-24T15:08:33Z</time><speed>8.180</speed><sat>32</sat></trkpt>
  <trkpt lat="31.70294617" lon="74.86557243"><ele>190.000</ele><time>2025-02-24T15:08:34Z</time><speed>7.780</speed><sat>31</sat></trkpt>
  <trkpt lat="31.70293284" lon="74.86565290"><ele>190.000</ele><time>2025-02-24T15:08:35Z</time><speed>7.780</speed><sat>32</sat></trkpt>
  <trkpt lat="31.70291549" lon="74.86573420"><ele>190.000</ele><time>2025-02-24T15:08:36Z</time><speed>7.950</speed><sat>32</sat></trkpt>
  <trkpt lat="31.70289969" lon="74.86581509"><ele>190.000</ele><time>2025-02-24T15:08:37Z</time><speed>8.030</speed><sat>31</sat></trkpt>
  <trkpt lat="31.70288217" lon="74.86589933"><ele>190.000</ele><time>2025-02-24T15:08:38Z</time><speed>8.240</speed><sat>32</sat></trkpt>
  <trkpt lat="31.70286398" lon="74.86598130"><ele>191.000</ele><time>2025-02-24T15:08:39Z</time><speed>8.420</speed><sat>32</sat></trkpt>
  <trkpt lat="31.70285208" lon="74.86607099"><ele>191.000</ele><time>2025-02-24T15:08:40Z</time><speed>8.510</speed><sat>31</sat></trkpt>
  <trkpt lat="31.70284093" lon="74.86616051"><ele>191.000</ele><time>2025-02-24T15:08:41Z</time><speed>8.720</speed><sat>30</sat></trkpt>
  <trkpt lat="31.70282773" lon="74.86625087"><ele>191.000</ele><time>2025-02-24T15:08:42Z</time><speed>8.610</speed><sat>32</sat></trkpt>
  <trkpt lat="31.70281021" lon="74.86633569"><ele>192.000</ele><time>2025-02-24T15:08:43Z</time><speed>8.310</speed><sat>31</sat></trkpt>
  <trkpt lat="31.70279881" lon="74.86642228"><ele>192.000</ele><time>2025-02-24T15:08:44Z</time><speed>8.060</speed><sat>31</sat></trkpt>
  <trkpt lat="31.70278486" lon="74.86650635"><ele>192.000</ele><time>2025-02-24T15:08:45Z</time><speed>7.690</speed><sat>31</sat></trkpt>
  <trkpt lat="31.70277597" lon="74.86658195"><ele>192.000</ele><time>2025-02-24T15:08:46Z</time><speed>7.380</speed><sat>32</sat></trkpt>
  <trkpt lat="31.70276160" lon="74.86665797"><ele>191.000</ele><time>2025-02-24T15:08:47Z</time><speed>7.230</speed><sat>31</sat></trkpt>
  <trkpt lat="31.70274240" lon="74.86673567"><ele>191.000</ele><time>2025-02-24T15:08:48Z</time><speed>7.620</speed><sat>31</sat></trkpt>
  <trkpt lat="31.70272862" lon="74.86681589"><ele>191.000</ele><time>2025-02-24T15:08:49Z</time><speed>7.740</speed><sat>31</sat></trkpt>
  <trkpt lat="31.70271671" lon="74.86690239"><ele>191.000</ele><time>2025-02-24T15:08:50Z</time><speed>7.810</speed><sat>31</sat></trkpt>
  <trkpt lat="31.70270167" lon="74.86698772"><ele>191.000</ele><time>2025-02-24T15:08:51Z</time><speed>7.870</speed><sat>31</sat></trkpt>
  <trkpt lat="31.70268679" lon="74.86706969"><ele>191.000</ele><time>2025-02-24T15:08:52Z</time><speed>7.740</speed><sat>31</sat></trkpt>
  <trkpt lat="31.70267007" lon="74.86714756"><ele>191.000</ele><time>2025-02-24T15:08:53Z</time><speed>6.880</speed><sat>29</sat></trkpt>
  <trkpt lat="31.70265322" lon="74.86722250"><ele>191.000</ele><time>2025-02-24T15:08:54Z</time><speed>7.030</speed><sat>29</sat></trkpt>
  <trkpt lat="31.70263600" lon="74.86729030"><ele>191.000</ele><time>2025-02-24T15:08:55Z</time><speed>6.750</speed><sat>29</sat></trkpt>
  <trkpt lat="31.70261747" lon="74.86735887"><ele>191.000</ele><time>2025-02-24T15:08:56Z</time><speed>6.180</speed><sat>28</sat></trkpt>
  <trkpt lat="31.70259995" lon="74.86742618"><ele>190.000</ele><time>2025-02-24T15:08:57Z</time><speed>5.950</speed><sat>29</sat></trkpt>
  <trkpt lat="31.70258746" lon="74.86748611"><ele>190.000</ele><time>2025-02-24T15:08:58Z</time><speed>5.780</speed><sat>29</sat></trkpt>
  <trkpt lat="31.70257674" lon="74.86753791"><ele>190.000</ele><time>2025-02-24T15:08:59Z</time><speed>4.970</speed><sat>29</sat></trkpt>
  <trkpt lat="31.70256555" lon="74.86758677"><ele>190.000</ele><time>2025-02-24T15:09:00Z</time><speed>4.790</speed><sat>29</sat></trkpt>
  <trkpt lat="31.70255285" lon="74.86762919"><ele>190.000</ele><time>2025-02-24T15:09:01Z</time><speed>4.400</speed><sat>29</sat></trkpt>
  <trkpt lat="31.70254107" lon="74.86766917"><ele>189.000</ele><time>2025-02-24T15:09:02Z</time><speed>4.420</speed><sat>27</sat></trkpt>
  <trkpt lat="31.70253298" lon="74.86770965"><ele>189.000</ele><time>2025-02-24T15:09:03Z</time><speed>4.080</speed><sat>29</sat></trkpt>
  <trkpt lat="31.70252305" lon="74.86775315"><ele>188.000</ele><time>2025-02-24T15:09:04Z</time><speed>3.960</speed><sat>31</sat></trkpt>
  <trkpt lat="31.70251366" lon="74.86779557"><ele>188.000</ele><time>2025-02-24T15:09:05Z</time><speed>3.920</speed><sat>31</sat></trkpt>
  <trkpt lat="31.70250369" lon="74.86783194"><ele>188.000</ele><time>2025-02-24T15:09:06Z</time><speed>4.080</speed><sat>30</sat></trkpt>
  <trkpt lat="31.70249665" lon="74.86786958"><ele>188.000</ele><time>2025-02-24T15:09:07Z</time><speed>4.070</speed><sat>32</sat></trkpt>
  <trkpt lat="31.70248747" lon="74.86790772"><ele>188.000</ele><time>2025-02-24T15:09:08Z</time><speed>3.990</speed><sat>31</sat></trkpt>
  <trkpt lat="31.70247829" lon="74.86795072"><ele>188.000</ele><time>2025-02-24T15:09:09Z</time><speed>4.090</speed><sat>30</sat></trkpt>
  <trkpt lat="31.70247079" lon="74.86800109"><ele>188.000</ele><time>2025-02-24T15:09:10Z</time><speed>4.700</speed><sat>31</sat></trkpt>
  <trkpt lat="31.70245843" lon="74.86805029"><ele>188.000</ele><time>2025-02-24T15:09:11Z</time><speed>5.110</speed><sat>29</sat></trkpt>
  <trkpt lat="31.70244581" lon="74.86811047"><ele>188.000</ele><time>2025-02-24T15:09:12Z</time><speed>5.920</speed><sat>32</sat></trkpt>
  <trkpt lat="31.70243605" lon="74.86817149"><ele>188.000</ele><time>2025-02-24T15:09:13Z</time><speed>6.230</speed><sat>31</sat></trkpt>
  <trkpt lat="31.70242616" lon="74.86824115"><ele>188.000</ele><time>2025-02-24T15:09:14Z</time><speed>6.660</speed><sat>32</sat></trkpt>
  <trkpt lat="31.70241987" lon="74.86831114"><ele>189.000</ele><time>2025-02-24T15:09:15Z</time><speed>6.430</speed><sat>32</sat></trkpt>
  <trkpt lat="31.70241400" lon="74.86837668"><ele>189.000</ele><time>2025-02-24T15:09:16Z</time><speed>6.220</speed><sat>31</sat></trkpt>
  <trkpt lat="31.70240830" lon="74.86844257"><ele>190.000</ele><time>2025-02-24T15:09:17Z</time><speed>6.110</speed><sat>31</sat></trkpt>
  <trkpt lat="31.70239967" lon="74.86850903"><ele>190.000</ele><time>2025-02-24T15:09:18Z</time><speed>6.450</speed><sat>31</sat></trkpt>
  <trkpt lat="31.70239116" lon="74.86857517"><ele>190.000</ele><time>2025-02-24T15:09:19Z</time><speed>6.370</speed><sat>32</sat></trkpt>
  <trkpt lat="31.70237746" lon="74.86864398"><ele>190.000</ele><time>2025-02-24T15:09:20Z</time><speed>6.570</speed><sat>32</sat></trkpt>
  <trkpt lat="31.70236312" lon="74.86871070"><ele>190.000</ele><time>2025-02-24T15:09:21Z</time><speed>6.520</speed><sat>31</sat></trkpt>
  <trkpt lat="31.70234845" lon="74.86877868"><ele>190.000</ele><time>2025-02-24T15:09:22Z</time><speed>7.020</speed><sat>30</sat></trkpt>
  <trkpt lat="31.70233152" lon="74.86885093"><ele>190.000</ele><time>2025-02-24T15:09:23Z</time><speed>7.280</speed><sat>32</sat></trkpt>
  <trkpt lat="31.70231455" lon="74.86892369"><ele>190.000</ele><time>2025-02-24T15:09:24Z</time><speed>7.340</speed><sat>31</sat></trkpt>
  <trkpt lat="31.70229938" lon="74.86900114"><ele>190.000</ele><time>2025-02-24T15:09:25Z</time><speed>7.230</speed><sat>31</sat></trkpt>
  <trkpt lat="31.70228685" lon="74.86907473"><ele>190.000</ele><time>2025-02-24T15:09:26Z</time><speed>7.170</speed><sat>32</sat></trkpt>
  <trkpt lat="31.70227126" lon="74.86914908"><ele>190.000</ele><time>2025-02-24T15:09:27Z</time><speed>7.190</speed><sat>31</sat></trkpt>
  <trkpt lat="31.70225956" lon="74.86922384"><ele>190.000</ele><time>2025-02-24T15:09:28Z</time><speed>6.840</speed><sat>32</sat></trkpt>
  <trkpt lat="31.70224942" lon="74.86929358"><ele>190.000</ele><time>2025-02-24T15:09:29Z</time><speed>6.890</speed><sat>31</sat></trkpt>
  <trkpt lat="31.70223752" lon="74.86936692"><ele>190.000</ele><time>2025-02-24T15:09:30Z</time><speed>7.170</speed><sat>32</sat></trkpt>
  <trkpt lat="31.70222964" lon="74.86944177"><ele>190.000</ele><time>2025-02-24T15:09:31Z</time><speed>7.110</speed><sat>32</sat></trkpt>
  <trkpt lat="31.70222159" lon="74.86951226"><ele>190.000</ele><time>2025-02-24T15:09:32Z</time><speed>6.970</speed><sat>32</sat></trkpt>
  <trkpt lat="31.70221439" lon="74.86958125"><ele>190.000</ele><time>2025-02-24T15:09:33Z</time><speed>6.930</speed><sat>32</sat></trkpt>
  <trkpt lat="31.70220676" lon="74.86965283"><ele>190.000</ele><time>2025-02-24T15:09:34Z</time><speed>6.520</speed><sat>31</sat></trkpt>
  <trkpt lat="31.70219775" lon="74.86972122"><ele>190.000</ele><time>2025-02-24T15:09:35Z</time><speed>6.340</speed><sat>32</sat></trkpt>
  <trkpt lat="31.70218727" lon="74.86985927"><ele>191.000</ele><time>2025-02-24T15:09:37Z</time><speed>6.080</speed><sat>32</sat></trkpt>
  <trkpt lat="31.70217759" lon="74.86992365"><ele>191.000</ele><time>2025-02-24T15:09:38Z</time><speed>6.010</speed><sat>31</sat></trkpt>
  <trkpt lat="31.70216389" lon="74.86998324"><ele>191.000</ele><time>2025-02-24T15:09:39Z</time><speed>6.020</speed><sat>31</sat></trkpt>
  <trkpt lat="31.70214737" lon="74.87011425"><ele>192.000</ele><time>2025-02-24T15:09:41Z</time><speed>6.400</speed><sat>31</sat></trkpt>
  <trkpt lat="31.70213706" lon="74.87018407"><ele>192.000</ele><time>2025-02-24T15:09:42Z</time><speed>6.780</speed><sat>32</sat></trkpt>
  <trkpt lat="31.70212973" lon="74.87025783"><ele>192.000</ele><time>2025-02-24T15:09:43Z</time><speed>6.840</speed><sat>32</sat></trkpt>
  <trkpt lat="31.70212080" lon="74.87032849"><ele>192.000</ele><time>2025-02-24T15:09:44Z</time><speed>6.610</speed><sat>32</sat></trkpt>
  <trkpt lat="31.70211280" lon="74.87039664"><ele>192.000</ele><time>2025-02-24T15:09:45Z</time><speed>6.340</speed><sat>32</sat></trkpt>
  <trkpt lat="31.70210274" lon="74.87045942"><ele>192.000</ele><time>2025-02-24T15:09:46Z</time><speed>6.220</speed><sat>32</sat></trkpt>
  <trkpt lat="31.70209432" lon="74.87052061"><ele>192.000</ele><time>2025-02-24T15:09:47Z</time><speed>6.020</speed><sat>31</sat></trkpt>
  <trkpt lat="31.70208623" lon="74.87058079"><ele>191.000</ele><time>2025-02-24T15:09:48Z</time><speed>5.810</speed><sat>32</sat></trkpt>
  <trkpt lat="31.70207881" lon="74.87064189"><ele>192.000</ele><time>2025-02-24T15:09:49Z</time><speed>5.790</speed><sat>32</sat></trkpt>
  <trkpt lat="31.70207122" lon="74.87069638"><ele>192.000</ele><time>2025-02-24T15:09:50Z</time><speed>5.840</speed><sat>32</sat></trkpt>
  <trkpt lat="31.70206188" lon="74.87075765"><ele>192.000</ele><time>2025-02-24T15:09:51Z</time><speed>5.980</speed><sat>31</sat></trkpt>
  <trkpt lat="31.70205404" lon="74.87082319"><ele>191.000</ele><time>2025-02-24T15:09:52Z</time><speed>6.890</speed><sat>31</sat></trkpt>
  <trkpt lat="31.70204197" lon="74.87089930"><ele>191.000</ele><time>2025-02-24T15:09:53Z</time><speed>7.150</speed><sat>31</sat></trkpt>
  <trkpt lat="31.70203032" lon="74.87097164"><ele>191.000</ele><time>2025-02-24T15:09:54Z</time><speed>7.190</speed><sat>32</sat></trkpt>
  <trkpt lat="31.70201599" lon="74.87104934"><ele>191.000</ele><time>2025-02-24T15:09:55Z</time><speed>7.270</speed><sat>32</sat></trkpt>
  <trkpt lat="31.70200237" lon="74.87112536"><ele>191.000</ele><time>2025-02-24T15:09:56Z</time><speed>7.260</speed><sat>31</sat></trkpt>
  <trkpt lat="31.70198896" lon="74.87119460"><ele>191.000</ele><time>2025-02-24T15:09:57Z</time><speed>6.950</speed><sat>30</sat></trkpt>
  <trkpt lat="31.70197533" lon="74.87126006"><ele>191.000</ele><time>2025-02-24T15:09:58Z</time><speed>5.570</speed><sat>32</sat></trkpt>
  <trkpt lat="31.70196804" lon="74.87130021"><ele>191.000</ele><time>2025-02-24T15:09:59Z</time><speed>3.200</speed><sat>32</sat></trkpt>
  <trkpt lat="31.70196553" lon="74.87132887"><ele>191.000</ele><time>2025-02-24T15:10:00Z</time><speed>2.340</speed><sat>32</sat></trkpt>
  <trkpt lat="31.70196104" lon="74.87135477"><ele>191.000</ele><time>2025-02-24T15:10:01Z</time><speed>2.460</speed><sat>31</sat></trkpt>
  <trkpt lat="31.70195689" lon="74.87138587"><ele>191.000</ele><time>2025-02-24T15:10:02Z</time><speed>2.710</speed><sat>31</sat></trkpt>
  <trkpt lat="31.70194956" lon="74.87141697"><ele>190.000</ele><time>2025-02-24T15:10:03Z</time><speed>2.810</speed><sat>32</sat></trkpt>
  <trkpt lat="31.70194394" lon="74.87144672"><ele>190.000</ele><time>2025-02-24T15:10:04Z</time><speed>2.720</speed><sat>31</sat></trkpt>
  <trkpt lat="31.70194072" lon="74.87147371"><ele>190.000</ele><time>2025-02-24T15:10:05Z</time><speed>2.110</speed><sat>31</sat></trkpt>
  <trkpt lat="31.70193665" lon="74.87149660"><ele>190.000</ele><time>2025-02-24T15:10:06Z</time><speed>2.180</speed><sat>31</sat></trkpt>
  <trkpt lat="31.70193208" lon="74.87153130"><ele>191.000</ele><time>2025-02-24T15:10:07Z</time><speed>3.660</speed><sat>31</sat></trkpt>
  <trkpt lat="31.70192458" lon="74.87157564"><ele>191.000</ele><time>2025-02-24T15:10:08Z</time><speed>4.750</speed><sat>32</sat></trkpt>
  <trkpt lat="31.70191825" lon="74.87162978"><ele>191.000</ele><time>2025-02-24T15:10:09Z</time><speed>6.170</speed><sat>32</sat></trkpt>
  <trkpt lat="31.70191079" lon="74.87170187"><ele>190.000</ele><time>2025-02-24T15:10:10Z</time><speed>7.390</speed><sat>32</sat></trkpt>
  <trkpt lat="31.70189847" lon="74.87177571"><ele>191.000</ele><time>2025-02-24T15:10:11Z</time><speed>7.310</speed><sat>32</sat></trkpt>
  <trkpt lat="31.70188812" lon="74.87185090"><ele>191.000</ele><time>2025-02-24T15:10:12Z</time><speed>6.920</speed><sat>31</sat></trkpt>
  <trkpt lat="31.70187970" lon="74.87192340"><ele>191.000</ele><time>2025-02-24T15:10:13Z</time><speed>6.640</speed><sat>32</sat></trkpt>
  <trkpt lat="31.70187006" lon="74.87198920"><ele>191.000</ele><time>2025-02-24T15:10:14Z</time><speed>5.820</speed><sat>32</sat></trkpt>
  <trkpt lat="31.70186042" lon="74.87204595"><ele>191.000</ele><time>2025-02-24T15:10:15Z</time><speed>5.170</speed><sat>31</sat></trkpt>
  <trkpt lat="31.70185778" lon="74.87209967"><ele>191.000</ele><time>2025-02-24T15:10:16Z</time><speed>5.040</speed><sat>32</sat></trkpt>
  <trkpt lat="31.70184894" lon="74.87215835"><ele>191.000</ele><time>2025-02-24T15:10:17Z</time><speed>5.280</speed><sat>32</sat></trkpt>
  <trkpt lat="31.70184085" lon="74.87221937"><ele>191.000</ele><time>2025-02-24T15:10:18Z</time><speed>5.660</speed><sat>32</sat></trkpt>
  <trkpt lat="31.70182886" lon="74.87228022"><ele>191.000</ele><time>2025-02-24T15:10:19Z</time><speed>5.500</speed><sat>30</sat></trkpt>
  <trkpt lat="31.70182094" lon="74.87234417"><ele>190.000</ele><time>2025-02-24T15:10:20Z</time><speed>5.750</speed><sat>31</sat></trkpt>
  <trkpt lat="31.70181407" lon="74.87240503"><ele>191.000</ele><time>2025-02-24T15:10:21Z</time><speed>5.640</speed><sat>32</sat></trkpt>
  <trkpt lat="31.70180158" lon="74.87246454"><ele>191.000</ele><time>2025-02-24T15:10:22Z</time><speed>6.010</speed><sat>32</sat></trkpt>
  <trkpt lat="31.70179185" lon="74.87252631"><ele>191.000</ele><time>2025-02-24T15:10:23Z</time><speed>6.410</speed><sat>32</sat></trkpt>
  <trkpt lat="31.70177974" lon="74.87259303"><ele>191.000</ele><time>2025-02-24T15:10:24Z</time><speed>6.340</speed><sat>32</sat></trkpt>
  <trkpt lat="31.70176994" lon="74.87265581"><ele>191.000</ele><time>2025-02-24T15:10:25Z</time><speed>6.290</speed><sat>32</sat></trkpt>
  <trkpt lat="31.70176243" lon="74.87272195"><ele>191.000</ele><time>2025-02-24T15:10:26Z</time><speed>6.410</speed><sat>31</sat></trkpt>
  <trkpt lat="31.70175418" lon="74.87278313"><ele>191.000</ele><time>2025-02-24T15:10:27Z</time><speed>6.230</speed><sat>32</sat></trkpt>
  <trkpt lat="31.70174307" lon="74.87284742"><ele>191.000</ele><time>2025-02-24T15:10:28Z</time><speed>6.050</speed><sat>32</sat></trkpt>
  <trkpt lat="31.70173322" lon="74.87290995"><ele>192.000</ele><time>2025-02-24T15:10:29Z</time><speed>6.580</speed><sat>32</sat></trkpt>
  <trkpt lat="31.70172719" lon="74.87297634"><ele>192.000</ele><time>2025-02-24T15:10:30Z</time><speed>6.140</speed><sat>32</sat></trkpt>
  <trkpt lat="31.70171675" lon="74.87303652"><ele>191.000</ele><time>2025-02-24T15:10:31Z</time><speed>5.650</speed><sat>31</sat></trkpt>
  <trkpt lat="31.70170845" lon="74.87308966"><ele>191.000</ele><time>2025-02-24T15:10:32Z</time><speed>4.940</speed><sat>32</sat></trkpt>
  <trkpt lat="31.70169768" lon="74.87313316"><ele>192.000</ele><time>2025-02-24T15:10:33Z</time><speed>3.900</speed><sat>32</sat></trkpt>
  <trkpt lat="31.70169010" lon="74.87316451"><ele>191.000</ele><time>2025-02-24T15:10:34Z</time><speed>2.600</speed><sat>31</sat></trkpt>
  <trkpt lat="31.70168415" lon="74.87318999"><ele>192.000</ele><time>2025-02-24T15:10:35Z</time><speed>2.250</speed><sat>32</sat></trkpt>
  <trkpt lat="31.70167903" lon="74.87321497"><ele>191.000</ele><time>2025-02-24T15:10:36Z</time><speed>2.270</speed><sat>31</sat></trkpt>
  <trkpt lat="31.70167145" lon="74.87324154"><ele>191.000</ele><time>2025-02-24T15:10:37Z</time><speed>2.500</speed><sat>32</sat></trkpt>
  <trkpt lat="31.70166646" lon="74.87327054"><ele>191.000</ele><time>2025-02-24T15:10:38Z</time><speed>2.830</speed><sat>32</sat></trkpt>
  <trkpt lat="31.70166001" lon="74.87329879"><ele>191.000</ele><time>2025-02-24T15:10:39Z</time><speed>2.490</speed><sat>31</sat></trkpt>
  <trkpt lat="31.70165292" lon="74.87332511"><ele>191.000</ele><time>2025-02-24T15:10:40Z</time><speed>2.650</speed><sat>31</sat></trkpt>
  <trkpt lat="31.70164559" lon="74.87335637"><ele>191.000</ele><time>2025-02-24T15:10:41Z</time><speed>3.520</speed><sat>32</sat></trkpt>
  <trkpt lat="31.70163557" lon="74.87339417"><ele>191.000</ele><time>2025-02-24T15:10:42Z</time><speed>3.780</speed><sat>32</sat></trkpt>
  <trkpt lat="31.70162434" lon="74.87344095"><ele>191.000</ele><time>2025-02-24T15:10:43Z</time><speed>4.370</speed><sat>31</sat></trkpt>
  <trkpt lat="31.70161663" lon="74.87348621"><ele>192.000</ele><time>2025-02-24T15:10:44Z</time><speed>4.250</speed><sat>31</sat></trkpt>
  <trkpt lat="31.70160867" lon="74.87353549"><ele>192.000</ele><time>2025-02-24T15:10:45Z</time><speed>4.740</speed><sat>32</sat></trkpt>
  <trkpt lat="31.70159513" lon="74.87358134"><ele>192.000</ele><time>2025-02-24T15:10:46Z</time><speed>4.360</speed><sat>31</sat></trkpt>
  <trkpt lat="31.70158771" lon="74.87362669"><ele>192.000</ele><time>2025-02-24T15:10:47Z</time><speed>4.040</speed><sat>32</sat></trkpt>
  <trkpt lat="31.70158126" lon="74.87366089"><ele>193.000</ele><time>2025-02-24T15:10:48Z</time><speed>3.350</speed><sat>31</sat></trkpt>
  <trkpt lat="31.70157510" lon="74.87370120"><ele>193.000</ele><time>2025-02-24T15:10:49Z</time><speed>3.810</speed><sat>32</sat></trkpt>
  <trkpt lat="31.70157204" lon="74.87374663"><ele>193.000</ele><time>2025-02-24T15:10:50Z</time><speed>4.210</speed><sat>30</sat></trkpt>
  <trkpt lat="31.70156596" lon="74.87379885"><ele>193.000</ele><time>2025-02-24T15:10:51Z</time><speed>4.500</speed><sat>32</sat></trkpt>
  <trkpt lat="31.70156014" lon="74.87384973"><ele>193.000</ele><time>2025-02-24T15:10:52Z</time><speed>4.720</speed><sat>32</sat></trkpt>
  <trkpt lat="31.70153834" lon="74.87395777"><ele>193.000</ele><time>2025-02-24T15:10:54Z</time><speed>5.160</speed><sat>32</sat></trkpt>
  <trkpt lat="31.70152673" lon="74.87401075"><ele>193.000</ele><time>2025-02-24T15:10:55Z</time><speed>5.680</speed><sat>32</sat></trkpt>
  <trkpt lat="31.70151496" lon="74.87407093"><ele>193.000</ele><time>2025-02-24T15:10:56Z</time><speed>6.020</speed><sat>31</sat></trkpt>
  <trkpt lat="31.70150498" lon="74.87413639"><ele>193.000</ele><time>2025-02-24T15:10:57Z</time><speed>6.490</speed><sat>32</sat></trkpt>
  <trkpt lat="31.70149467" lon="74.87420680"><ele>193.000</ele><time>2025-02-24T15:10:58Z</time><speed>6.240</speed><sat>31</sat></trkpt>
  <trkpt lat="31.70148495" lon="74.87427436"><ele>193.000</ele><time>2025-02-24T15:10:59Z</time><speed>6.160</speed><sat>31</sat></trkpt>
  <trkpt lat="31.70147452" lon="74.87434502"><ele>192.000</ele><time>2025-02-24T15:11:00Z</time><speed>6.530</speed><sat>32</sat></trkpt>
  <trkpt lat="31.70146064" lon="74.87441735"><ele>192.000</ele><time>2025-02-24T15:11:01Z</time><speed>6.840</speed><sat>30</sat></trkpt>
  <trkpt lat="31.70144618" lon="74.87448776"><ele>191.000</ele><time>2025-02-24T15:11:02Z</time><speed>7.000</speed><sat>30</sat></trkpt>
  <trkpt lat="31.70143319" lon="74.87456169"><ele>191.000</ele><time>2025-02-24T15:11:03Z</time><speed>6.990</speed><sat>30</sat></trkpt>
  <trkpt lat="31.70141966" lon="74.87463646"><ele>191.000</ele><time>2025-02-24T15:11:04Z</time><speed>7.080</speed><sat>32</sat></trkpt>
  <trkpt lat="31.70140847" lon="74.87470695"><ele>191.000</ele><time>2025-02-24T15:11:05Z</time><speed>7.070</speed><sat>32</sat></trkpt>
  <trkpt lat="31.70139799" lon="74.87478138"><ele>191.000</ele><time>2025-02-24T15:11:06Z</time><speed>6.920</speed><sat>32</sat></trkpt>
  <trkpt lat="31.70138064" lon="74.87484919"><ele>191.000</ele><time>2025-02-24T15:11:07Z</time><speed>6.800</speed><sat>32</sat></trkpt>
  <trkpt lat="31.70136924" lon="74.87491935"><ele>191.000</ele><time>2025-02-24T15:11:08Z</time><speed>6.630</speed><sat>32</sat></trkpt>
  <trkpt lat="31.70135206" lon="74.87498313"><ele>190.000</ele><time>2025-02-24T15:11:09Z</time><speed>6.510</speed><sat>32</sat></trkpt>
  <trkpt lat="31.70134041" lon="74.87504415"><ele>191.000</ele><time>2025-02-24T15:11:10Z</time><speed>6.240</speed><sat>32</sat></trkpt>
  <trkpt lat="31.70132938" lon="74.87511062"><ele>191.000</ele><time>2025-02-24T15:11:11Z</time><speed>6.780</speed><sat>32</sat></trkpt>
  <trkpt lat="31.70131807" lon="74.87518086"><ele>191.000</ele><time>2025-02-24T15:11:12Z</time><speed>6.830</speed><sat>32</sat></trkpt>
  <trkpt lat="31.70130244" lon="74.87532184"><ele>191.000</ele><time>2025-02-24T15:11:14Z</time><speed>6.500</speed><sat>31</sat></trkpt>
  <trkpt lat="31.70129695" lon="74.87538639"><ele>191.000</ele><time>2025-02-24T15:11:15Z</time><speed>5.970</speed><sat>32</sat></trkpt>
  <trkpt lat="31.70129032" lon="74.87544673"><ele>191.000</ele><time>2025-02-24T15:11:16Z</time><speed>5.390</speed><sat>32</sat></trkpt>
  <trkpt lat="31.70128475" lon="74.87550247"><ele>191.000</ele><time>2025-02-24T15:11:17Z</time><speed>5.020</speed><sat>32</sat></trkpt>
  <trkpt lat="31.70128622" lon="74.87555386"><ele>191.000</ele><time>2025-02-24T15:11:18Z</time><speed>4.690</speed><sat>31</sat></trkpt>
  <trkpt lat="31.70128324" lon="74.87560566"><ele>192.000</ele><time>2025-02-24T15:11:19Z</time><speed>4.730</speed><sat>30</sat></trkpt>
  <trkpt lat="31.70127322" lon="74.87565477"><ele>191.000</ele><time>2025-02-24T15:11:20Z</time><speed>4.460</speed><sat>30</sat></trkpt>
  <trkpt lat="31.70126400" lon="74.87569710"><ele>191.000</ele><time>2025-02-24T15:11:21Z</time><speed>4.380</speed><sat>30</sat></trkpt>
  <trkpt lat="31.70125441" lon="74.87574203"><ele>191.000</ele><time>2025-02-24T15:11:22Z</time><speed>4.320</speed><sat>29</sat></trkpt>
  <trkpt lat="31.70124003" lon="74.87578796"><ele>191.000</ele><time>2025-02-24T15:11:23Z</time><speed>4.300</speed><sat>31</sat></trkpt>
  <trkpt lat="31.70123140" lon="74.87583775"><ele>191.000</ele><time>2025-02-24T15:11:24Z</time><speed>4.400</speed><sat>30</sat></trkpt>
  <trkpt lat="31.70122365" lon="74.87588318"><ele>190.000</ele><time>2025-02-24T15:11:25Z</time><speed>4.180</speed><sat>31</sat></trkpt>
  <trkpt lat="31.70121455" lon="74.87592643"><ele>190.000</ele><time>2025-02-24T15:11:26Z</time><speed>4.240</speed><sat>30</sat></trkpt>
  <trkpt lat="31.70120621" lon="74.87597471"><ele>190.000</ele><time>2025-02-24T15:11:27Z</time><speed>4.730</speed><sat>29</sat></trkpt>
  <trkpt lat="31.70119804" lon="74.87602341"><ele>190.000</ele><time>2025-02-24T15:11:28Z</time><speed>5.050</speed><sat>30</sat></trkpt>
  <trkpt lat="31.70118890" lon="74.87607647"><ele>191.000</ele><time>2025-02-24T15:11:29Z</time><speed>5.270</speed><sat>32</sat></trkpt>
  <trkpt lat="31.70117817" lon="74.87613698"><ele>191.000</ele><time>2025-02-24T15:11:30Z</time><speed>5.410</speed><sat>32</sat></trkpt>
  <trkpt lat="31.70117159" lon="74.87619298"><ele>190.000</ele><time>2025-02-24T15:11:31Z</time><speed>5.400</speed><sat>31</sat></trkpt>
  <trkpt lat="31.70116145" lon="74.87624637"><ele>190.000</ele><time>2025-02-24T15:11:32Z</time><speed>5.420</speed><sat>31</sat></trkpt>
  <trkpt lat="31.70114741" lon="74.87629775"><ele>189.000</ele><time>2025-02-24T15:11:33Z</time><speed>5.300</speed><sat>32</sat></trkpt>
  <trkpt lat="31.70113794" lon="74.87635190"><ele>189.000</ele><time>2025-02-24T15:11:34Z</time><speed>5.400</speed><sat>31</sat></trkpt>
  <trkpt lat="31.70112755" lon="74.87640982"><ele>190.000</ele><time>2025-02-24T15:11:35Z</time><speed>5.310</speed><sat>30</sat></trkpt>
  <trkpt lat="31.70111455" lon="74.87645642"><ele>190.000</ele><time>2025-02-24T15:11:36Z</time><speed>4.680</speed><sat>29</sat></trkpt>
  <trkpt lat="31.70111028" lon="74.87650059"><ele>190.000</ele><time>2025-02-24T15:11:37Z</time><speed>4.000</speed><sat>31</sat></trkpt>
  <trkpt lat="31.70111217" lon="74.87654443"><ele>190.000</ele><time>2025-02-24T15:11:38Z</time><speed>4.040</speed><sat>31</sat></trkpt>
  <trkpt lat="31.70110886" lon="74.87658885"><ele>190.000</ele><time>2025-02-24T15:11:39Z</time><speed>4.240</speed><sat>31</sat></trkpt>
  <trkpt lat="31.70111003" lon="74.87664317"><ele>190.000</ele><time>2025-02-24T15:11:40Z</time><speed>4.560</speed><sat>32</sat></trkpt>
  <trkpt lat="31.70111447" lon="74.87669354"><ele>189.000</ele><time>2025-02-24T15:11:41Z</time><speed>4.710</speed><sat>30</sat></trkpt>
  <trkpt lat="31.70111217" lon="74.87674082"><ele>189.000</ele><time>2025-02-24T15:11:42Z</time><speed>4.440</speed><sat>30</sat></trkpt>
  <trkpt lat="31.70110919" lon="74.87679220"><ele>189.000</ele><time>2025-02-24T15:11:43Z</time><speed>4.770</speed><sat>30</sat></trkpt>
  <trkpt lat="31.70110873" lon="74.87684190"><ele>188.000</ele><time>2025-02-24T15:11:44Z</time><speed>4.780</speed><sat>31</sat></trkpt>
  <trkpt lat="31.70110798" lon="74.87689597"><ele>188.000</ele><time>2025-02-24T15:11:45Z</time><speed>4.680</speed><sat>31</sat></trkpt>
  <trkpt lat="31.70110609" lon="74.87694559"><ele>188.000</ele><time>2025-02-24T15:11:46Z</time><speed>4.600</speed><sat>30</sat></trkpt>
  <trkpt lat="31.70110722" lon="74.87700200"><ele>188.000</ele><time>2025-02-24T15:11:47Z</time><speed>4.910</speed><sat>32</sat></trkpt>
  <trkpt lat="31.70110802" lon="74.87705749"><ele>188.000</ele><time>2025-02-24T15:11:48Z</time><speed>5.370</speed><sat>31</sat></trkpt>
  <trkpt lat="31.70110856" lon="74.87711708"><ele>188.000</ele><time>2025-02-24T15:11:49Z</time><speed>5.540</speed><sat>31</sat></trkpt>
  <trkpt lat="31.70111376" lon="74.87717902"><ele>188.000</ele><time>2025-02-24T15:11:50Z</time><speed>5.340</speed><sat>31</sat></trkpt>
  <trkpt lat="31.70111564" lon="74.87723175"><ele>189.000</ele><time>2025-02-24T15:11:51Z</time><speed>4.570</speed><sat>31</sat></trkpt>
  <trkpt lat="31.70111606" lon="74.87732260"><ele>188.000</ele><time>2025-02-24T15:11:53Z</time><speed>4.650</speed><sat>30</sat></trkpt>
  <trkpt lat="31.70111321" lon="74.87736996"><ele>188.000</ele><time>2025-02-24T15:11:54Z</time><speed>4.340</speed><sat>32</sat></trkpt>
  <trkpt lat="31.70111363" lon="74.87741103"><ele>189.000</ele><time>2025-02-24T15:11:55Z</time><speed>3.510</speed><sat>31</sat></trkpt>
  <trkpt lat="31.70111506" lon="74.87744733"><ele>189.000</ele><time>2025-02-24T15:11:56Z</time><speed>3.360</speed><sat>31</sat></trkpt>
  <trkpt lat="31.70111472" lon="74.87748580"><ele>189.000</ele><time>2025-02-24T15:11:57Z</time><speed>3.320</speed><sat>31</sat></trkpt>
  <trkpt lat="31.70110743" lon="74.87751991"><ele>189.000</ele><time>2025-02-24T15:11:58Z</time><speed>3.560</speed><sat>32</sat></trkpt>
  <trkpt lat="31.70109884" lon="74.87755705"><ele>189.000</ele><time>2025-02-24T15:11:59Z</time><speed>3.570</speed><sat>31</sat></trkpt>
  <trkpt lat="31.70109276" lon="74.87759669"><ele>189.000</ele><time>2025-02-24T15:12:00Z</time><speed>3.930</speed><sat>30</sat></trkpt>
  <trkpt lat="31.70108731" lon="74.87763751"><ele>189.000</ele><time>2025-02-24T15:12:01Z</time><speed>4.380</speed><sat>31</sat></trkpt>
  <trkpt lat="31.70108245" lon="74.87768386"><ele>189.000</ele><time>2025-02-24T15:12:02Z</time><speed>4.740</speed><sat>30</sat></trkpt>
  <trkpt lat="31.70106921" lon="74.87772854"><ele>190.000</ele><time>2025-02-24T15:12:03Z</time><speed>5.110</speed><sat>31</sat></trkpt>
  <trkpt lat="31.70105718" lon="74.87777732"><ele>190.000</ele><time>2025-02-24T15:12:04Z</time><speed>5.090</speed><sat>31</sat></trkpt>
  <trkpt lat="31.70104272" lon="74.87782921"><ele>190.000</ele><time>2025-02-24T15:12:05Z</time><speed>5.210</speed><sat>32</sat></trkpt>
  <trkpt lat="31.70101108" lon="74.87794278"><ele>190.000</ele><time>2025-02-24T15:12:07Z</time><speed>5.680</speed><sat>31</sat></trkpt>
  <trkpt lat="31.70099842" lon="74.87800623"><ele>190.000</ele><time>2025-02-24T15:12:08Z</time><speed>5.980</speed><sat>29</sat></trkpt>
  <trkpt lat="31.70098493" lon="74.87807354"><ele>190.000</ele><time>2025-02-24T15:12:09Z</time><speed>6.230</speed><sat>32</sat></trkpt>
  <trkpt lat="31.70097206" lon="74.87813733"><ele>190.000</ele><time>2025-02-24T15:12:10Z</time><speed>6.500</speed><sat>32</sat></trkpt>
  <trkpt lat="31.70095806" lon="74.87820606"><ele>191.000</ele><time>2025-02-24T15:12:11Z</time><speed>6.560</speed><sat>32</sat></trkpt>
  <trkpt lat="31.70094046" lon="74.87826607"><ele>191.000</ele><time>2025-02-24T15:12:12Z</time><speed>6.470</speed><sat>31</sat></trkpt>
  <trkpt lat="31.70091284" lon="74.87832173"><ele>192.000</ele><time>2025-02-24T15:12:13Z</time><speed>6.360</speed><sat>32</sat></trkpt>
  <trkpt lat="31.70087123" lon="74.87837713"><ele>192.000</ele><time>2025-02-24T15:12:14Z</time><speed>6.330</speed><sat>31</sat></trkpt>
  <trkpt lat="31.70082844" lon="74.87842399"><ele>192.000</ele><time>2025-02-24T15:12:15Z</time><speed>6.270</speed><sat>32</sat></trkpt>
  <trkpt lat="31.70078427" lon="74.87846548"><ele>192.000</ele><time>2025-02-24T15:12:16Z</time><speed>6.210</speed><sat>30</sat></trkpt>
  <trkpt lat="31.70074177" lon="74.87851820"><ele>192.000</ele><time>2025-02-24T15:12:17Z</time><speed>6.240</speed><sat>31</sat></trkpt>
  <trkpt lat="31.70070108" lon="74.87856430"><ele>192.000</ele><time>2025-02-24T15:12:18Z</time><speed>6.290</speed><sat>31</sat></trkpt>
  <trkpt lat="31.70066055" lon="74.87861342"><ele>192.000</ele><time>2025-02-24T15:12:19Z</time><speed>6.330</speed><sat>31</sat></trkpt>
  <trkpt lat="31.70062543" lon="74.87866824"><ele>192.000</ele><time>2025-02-24T15:12:20Z</time><speed>6.240</speed><sat>31</sat></trkpt>
  <trkpt lat="31.70059052" lon="74.87872222"><ele>192.000</ele><time>2025-02-24T15:12:21Z</time><speed>6.180</speed><sat>31</sat></trkpt>
  <trkpt lat="31.70055150" lon="74.87877343"><ele>192.000</ele><time>2025-02-24T15:12:22Z</time><speed>6.230</speed><sat>32</sat></trkpt>
  <trkpt lat="31.70051009" lon="74.87881735"><ele>192.000</ele><time>2025-02-24T15:12:23Z</time><speed>6.180</speed><sat>32</sat></trkpt>
  <trkpt lat="31.70046592" lon="74.87886446"><ele>192.000</ele><time>2025-02-24T15:12:24Z</time><speed>6.280</speed><sat>31</sat></trkpt>
  <trkpt lat="31.70042611" lon="74.87890930"><ele>192.000</ele><time>2025-02-24T15:12:25Z</time><speed>6.040</speed><sat>29</sat></trkpt>
  <trkpt lat="31.70039476" lon="74.87894794"><ele>192.000</ele><time>2025-02-24T15:12:26Z</time><speed>4.750</speed><sat>32</sat></trkpt>
  <trkpt lat="31.70036907" lon="74.87897485"><ele>192.000</ele><time>2025-02-24T15:12:27Z</time><speed>3.870</speed><sat>32</sat></trkpt>
  <trkpt lat="31.70034401" lon="74.87900142"><ele>192.000</ele><time>2025-02-24T15:12:28Z</time><speed>3.770</speed><sat>30</sat></trkpt>
  <trkpt lat="31.70031693" lon="74.87902815"><ele>192.000</ele><time>2025-02-24T15:12:29Z</time><speed>3.710</speed><sat>31</sat></trkpt>
  <trkpt lat="31.70029057" lon="74.87905623"><ele>192.000</ele><time>2025-02-24T15:12:30Z</time><speed>3.480</speed><sat>29</sat></trkpt>
  <trkpt lat="31.70026639" lon="74.87908373"><ele>192.000</ele><time>2025-02-24T15:12:31Z</time><speed>3.350</speed><sat>31</sat></trkpt>
  <trkpt lat="31.70024238" lon="74.87910787"><ele>192.000</ele><time>2025-02-24T15:12:32Z</time><speed>3.300</speed><sat>31</sat></trkpt>
  <trkpt lat="31.70021677" lon="74.87913142"><ele>192.000</ele><time>2025-02-24T15:12:33Z</time><speed>3.390</speed><sat>32</sat></trkpt>
  <trkpt lat="31.70019372" lon="74.87915673"><ele>192.000</ele><time>2025-02-24T15:12:34Z</time><speed>3.310</speed><sat>30</sat></trkpt>
  <trkpt lat="31.70016920" lon="74.87917660"><ele>192.000</ele><time>2025-02-24T15:12:35Z</time><speed>3.380</speed><sat>32</sat></trkpt>
  <trkpt lat="31.70014431" lon="74.87919881"><ele>192.000</ele><time>2025-02-24T15:12:36Z</time><speed>3.400</speed><sat>31</sat></trkpt>
  <trkpt lat="31.70011975" lon="74.87922714"><ele>192.000</ele><time>2025-02-24T15:12:37Z</time><speed>3.470</speed><sat>32</sat></trkpt>
  <trkpt lat="31.70009498" lon="74.87925170"><ele>192.000</ele><time>2025-02-24T15:12:38Z</time><speed>3.850</speed><sat>32</sat></trkpt>
  <trkpt lat="31.70007289" lon="74.87928003"><ele>192.000</ele><time>2025-02-24T15:12:39Z</time><speed>3.840</speed><sat>31</sat></trkpt>
  <trkpt lat="31.70005098" lon="74.87930367"><ele>192.000</ele><time>2025-02-24T15:12:40Z</time><speed>3.480</speed><sat>32</sat></trkpt>
  <trkpt lat="31.70002910" lon="74.87932580"><ele>192.000</ele><time>2025-02-24T15:12:41Z</time><speed>3.410</speed><sat>32</sat></trkpt>
  <trkpt lat="31.70000504" lon="74.87935203"><ele>192.000</ele><time>2025-02-24T15:12:42Z</time><speed>3.430</speed><sat>31</sat></trkpt>
  <trkpt lat="31.69998141" lon="74.87937265"><ele>192.000</ele><time>2025-02-24T15:12:43Z</time><speed>2.970</speed><sat>32</sat></trkpt>
  <trkpt lat="31.69996209" lon="74.87939226"><ele>192.000</ele><time>2025-02-24T15:12:44Z</time><speed>2.370</speed><sat>32</sat></trkpt>
  <trkpt lat="31.69994448" lon="74.87940735"><ele>192.000</ele><time>2025-02-24T15:12:45Z</time><speed>2.280</speed><sat>31</sat></trkpt>
  <trkpt lat="31.69993019" lon="74.87942504"><ele>192.000</ele><time>2025-02-24T15:12:46Z</time><speed>2.100</speed><sat>32</sat></trkpt>
  <trkpt lat="31.69991657" lon="74.87943904"><ele>192.000</ele><time>2025-02-24T15:12:47Z</time><speed>1.800</speed><sat>32</sat></trkpt>
  <trkpt lat="31.69990362" lon="74.87945094"><ele>192.000</ele><time>2025-02-24T15:12:48Z</time><speed>1.830</speed><sat>32</sat></trkpt>
  <trkpt lat="31.69988627" lon="74.87946410"><ele>192.000</ele><time>2025-02-24T15:12:49Z</time><speed>2.480</speed><sat>31</sat></trkpt>
  <trkpt lat="31.69986804" lon="74.87947684"><ele>191.000</ele><time>2025-02-24T15:12:50Z</time><speed>2.370</speed><sat>30</sat></trkpt>
  <trkpt lat="31.69985241" lon="74.87949142"><ele>191.000</ele><time>2025-02-24T15:12:51Z</time><speed>2.380</speed><sat>32</sat></trkpt>
  <trkpt lat="31.69983162" lon="74.87950316"><ele>191.000</ele><time>2025-02-24T15:12:52Z</time><speed>2.560</speed><sat>31</sat></trkpt>
  <trkpt lat="31.69981796" lon="74.87952068"><ele>191.000</ele><time>2025-02-24T15:12:53Z</time><speed>2.820</speed><sat>31</sat></trkpt>
  <trkpt lat="31.69979633" lon="74.87954021"><ele>191.000</ele><time>2025-02-24T15:12:54Z</time><speed>2.800</speed><sat>32</sat></trkpt>
  <trkpt lat="31.69977521" lon="74.87955873"><ele>191.000</ele><time>2025-02-24T15:12:55Z</time><speed>2.740</speed><sat>31</sat></trkpt>
  <trkpt lat="31.69975514" lon="74.87957482"><ele>191.000</ele><time>2025-02-24T15:12:56Z</time><speed>2.720</speed><sat>31</sat></trkpt>
  <trkpt lat="31.69973443" lon="74.87958999"><ele>191.000</ele><time>2025-02-24T15:12:57Z</time><speed>2.590</speed><sat>31</sat></trkpt>
  <trkpt lat="31.69971553" lon="74.87960575"><ele>190.000</ele><time>2025-02-24T15:12:58Z</time><speed>2.430</speed><sat>31</sat></trkpt>
  <trkpt lat="31.69969998" lon="74.87962201"><ele>190.000</ele><time>2025-02-24T15:12:59Z</time><speed>2.370</speed><sat>31</sat></trkpt>
  <trkpt lat="31.69968108" lon="74.87963475"><ele>190.000</ele><time>2025-02-24T15:13:00Z</time><speed>2.570</speed><sat>32</sat></trkpt>
  <trkpt lat="31.69964018" lon="74.87967373"><ele>190.000</ele><time>2025-02-24T15:13:02Z</time><speed>2.780</speed><sat>32</sat></trkpt>
  <trkpt lat="31.69962132" lon="74.87969217"><ele>190.000</ele><time>2025-02-24T15:13:03Z</time><speed>2.720</speed><sat>30</sat></trkpt>
  <trkpt lat="31.69959873" lon="74.87970784"><ele>190.000</ele><time>2025-02-24T15:13:04Z</time><speed>2.690</speed><sat>30</sat></trkpt>
  <trkpt lat="31.69958314" lon="74.87972687"><ele>191.000</ele><time>2025-02-24T15:13:05Z</time><speed>2.520</speed><sat>32</sat></trkpt>
  <trkpt lat="31.69956700" lon="74.87974665"><ele>190.000</ele><time>2025-02-24T15:13:06Z</time><speed>2.620</speed><sat>30</sat></trkpt>
  <trkpt lat="31.69955066" lon="74.87976945"><ele>190.000</ele><time>2025-02-24T15:13:07Z</time><speed>2.720</speed><sat>31</sat></trkpt>
  <trkpt lat="31.69953264" lon="74.87978990"><ele>190.000</ele><time>2025-02-24T15:13:08Z</time><speed>2.770</speed><sat>31</sat></trkpt>
  <trkpt lat="31.69951675" lon="74.87980893"><ele>190.000</ele><time>2025-02-24T15:13:09Z</time><speed>2.780</speed><sat>31</sat></trkpt>
  <trkpt lat="31.69949538" lon="74.87983014"><ele>190.000</ele><time>2025-02-24T15:13:10Z</time><speed>2.800</speed><sat>32</sat></trkpt>
  <trkpt lat="31.69947493" lon="74.87984832"><ele>190.000</ele><time>2025-02-24T15:13:11Z</time><speed>2.760</speed><sat>31</sat></trkpt>
  <trkpt lat="31.69945871" lon="74.87986919"><ele>190.000</ele><time>2025-02-24T15:13:12Z</time><speed>2.630</speed><sat>32</sat></trkpt>
  <trkpt lat="31.69944061" lon="74.87988847"><ele>190.000</ele><time>2025-02-24T15:13:13Z</time><speed>2.580</speed><sat>31</sat></trkpt>
  <trkpt lat="31.69942434" lon="74.87990540"><ele>190.000</ele><time>2025-02-24T15:13:14Z</time><speed>2.350</speed><sat>31</sat></trkpt>
  <trkpt lat="31.69940465" lon="74.87992317"><ele>190.000</ele><time>2025-02-24T15:13:15Z</time><speed>2.260</speed><sat>30</sat></trkpt>
  <trkpt lat="31.69939061" lon="74.87993516"><ele>190.000</ele><time>2025-02-24T15:13:16Z</time><speed>2.070</speed><sat>30</sat></trkpt>
  <trkpt lat="31.69936010" lon="74.87996383"><ele>190.000</ele><time>2025-02-24T15:13:18Z</time><speed>2.080</speed><sat>31</sat></trkpt>
  <trkpt lat="31.69934568" lon="74.87998193"><ele>190.000</ele><time>2025-02-24T15:13:19Z</time><speed>1.950</speed><sat>32</sat></trkpt>
  <trkpt lat="31.69933411" lon="74.87999610"><ele>190.000</ele><time>2025-02-24T15:13:20Z</time><speed>1.900</speed><sat>31</sat></trkpt>
  <trkpt lat="31.69931898" lon="74.88000900"><ele>189.000</ele><time>2025-02-24T15:13:21Z</time><speed>2.150</speed><sat>32</sat></trkpt>
  <trkpt lat="31.69930138" lon="74.88002434"><ele>189.000</ele><time>2025-02-24T15:13:22Z</time><speed>2.260</speed><sat>31</sat></trkpt>
  <trkpt lat="31.69928403" lon="74.88003197"><ele>189.000</ele><time>2025-02-24T15:13:23Z</time><speed>2.280</speed><sat>31</sat></trkpt>
  <trkpt lat="31.69926517" lon="74.88004329"><ele>189.000</ele><time>2025-02-24T15:13:24Z</time><speed>2.280</speed><sat>31</sat></trkpt>
  <trkpt lat="31.69924652" lon="74.88005829"><ele>189.000</ele><time>2025-02-24T15:13:25Z</time><speed>2.300</speed><sat>30</sat></trkpt>
  <trkpt lat="31.69922758" lon="74.88007153"><ele>189.000</ele><time>2025-02-24T15:13:26Z</time><speed>2.250</speed><sat>30</sat></trkpt>
  <trkpt lat="31.69921186" lon="74.88009031"><ele>189.000</ele><time>2025-02-24T15:13:27Z</time><speed>2.520</speed><sat>31</sat></trkpt>
  <trkpt lat="31.69919263" lon="74.88010867"><ele>189.000</ele><time>2025-02-24T15:13:28Z</time><speed>2.560</speed><sat>32</sat></trkpt>
  <trkpt lat="31.69917569" lon="74.88013130"><ele>188.000</ele><time>2025-02-24T15:13:29Z</time><speed>2.380</speed><sat>31</sat></trkpt>
  <trkpt lat="31.69915730" lon="74.88014898"><ele>188.000</ele><time>2025-02-24T15:13:30Z</time><speed>2.210</speed><sat>31</sat></trkpt>
  <trkpt lat="31.69913106" lon="74.88017924"><ele>188.000</ele><time>2025-02-24T15:13:32Z</time><speed>2.040</speed><sat>31</sat></trkpt>
  <trkpt lat="31.69912096" lon="74.88019567"><ele>189.000</ele><time>2025-02-24T15:13:33Z</time><speed>1.880</speed><sat>32</sat></trkpt>
  <trkpt lat="31.69911162" lon="74.88020841"><ele>189.000</ele><time>2025-02-24T15:13:34Z</time><speed>1.470</speed><sat>29</sat></trkpt>
  <trkpt lat="31.69910361" lon="74.88022199"><ele>189.000</ele><time>2025-02-24T15:13:35Z</time><speed>0.960</speed><sat>32</sat></trkpt>
  <trkpt lat="31.69910143" lon="74.88022978"><ele>188.000</ele><time>2025-02-24T15:13:36Z</time><speed>0.410</speed><sat>28</sat></trkpt>
  <trkpt lat="31.69909925" lon="74.88023565"><ele>188.000</ele><time>2025-02-24T15:13:37Z</time><speed>0.440</speed><sat>24</sat></trkpt>
  <trkpt lat="31.69909871" lon="74.88023741"><ele>188.000</ele><time>2025-02-24T15:13:38Z</time><speed>0.040</speed><sat>32</sat></trkpt>
  <trkpt lat="31.69909904" lon="74.88023708"><ele>188.000</ele><time>2025-02-24T15:13:39Z</time><speed>0.000</speed><sat>32</sat></trkpt>
  <trkpt lat="31.69909904" lon="74.88023708"><ele>188.000</ele><time>2025-02-24T15:13:40Z</time><speed>0.000</speed><sat>32</sat></trkpt>
  <trkpt lat="31.69909904" lon="74.88023708"><ele>188.000</ele><time>2025-02-24T15:13:41Z</time><speed>0.000</speed><sat>30</sat></trkpt>
  <trkpt lat="31.69909904" lon="74.88023708"><ele>188.000</ele><time>2025-02-24T15:13:42Z</time><speed>0.000</speed><sat>30</sat></trkpt>
  <trkpt lat="31.69909904" lon="74.88023708"><ele>188.000</ele><time>2025-02-24T15:13:43Z</time><speed>0.000</speed><sat>30</sat></trkpt>
  <trkpt lat="31.69909904" lon="74.88023708"><ele>188.000</ele><time>2025-02-24T15:13:44Z</time><speed>0.000</speed><sat>31</sat></trkpt>
 </trkseg>
</trk>

</gpx>