<gpx xmlns="http://www.topografix.com/GPX/1/0" xmlns:xsi="http://www.w3.org/2001/XMLSchema-instance" version="1.0" creator="BasicAirData GPS Logger 3.2.3" xsi:schemaLocation="http://www.topografix.com/GPX/1/0 http://www.topografix.com/GPX/1/0/gpx.xsd">
<name>GPS Logger 20250224-121723</name>
<desc>A02099</desc>
<time>2025-02-24T06:54:55Z</time>
<keywords>car</keywords>
<bounds minlat="31.55113821" minlon="74.84917978" maxlat="31.56694723" maxlon="74.85674956"/>

<trk>
 <name>Track 20250224-121723</name>
 <trkseg>
  <trkpt lat="31.55114450" lon="74.84917978"><ele>184.000</ele><time>2025-02-24T12:17:23Z</time><speed>0.000</speed><sat>29</sat></trkpt>
  <trkpt lat="31.55114450" lon="74.84917978"><ele>184.000</ele><time>2025-02-24T12:17:24Z</time><speed>0.000</speed><sat>28</sat></trkpt>
  <trkpt lat="31.55114450" lon="74.84917978"><ele>184.000</ele><time>2025-02-24T12:17:25Z</time><speed>0.000</speed><sat>30</sat></trkpt>
  <trkpt lat="31.55113821" lon="74.84919227"><ele>185.000</ele><time>2025-02-24T12:17:26Z</time><speed>1.050</speed><sat>29</sat></trkpt>
  <trkpt lat="31.55114240" lon="74.84920551"><ele>187.000</ele><time>2025-02-24T12:17:27Z</time><speed>1.380</speed><sat>31</sat></trkpt>
  <trkpt lat="31.55116000" lon="74.84920828"><ele>188.000</ele><time>2025-02-24T12:17:28Z</time><speed>1.610</speed><sat>31</sat></trkpt>
  <trkpt lat="31.55118335" lon="74.84921540"><ele>187.000</ele><time>2025-02-24T12:17:29Z</time><speed>1.660</speed><sat>30</sat></trkpt>
  <trkpt lat="31.55120137" lon="74.84921926"><ele>189.000</ele><time>2025-02-24T12:17:30Z</time><speed>1.570</speed><sat>32</sat></trkpt>
  <trkpt lat="31.55121633" lon="74.84922605"><ele>190.000</ele><time>2025-02-24T12:17:31Z</time><speed>1.590</speed><sat>32</sat></trkpt>
  <trkpt lat="31.55123033" lon="74.84922848"><ele>191.000</ele><time>2025-02-24T12:17:32Z</time><speed>1.410</speed><sat>31</sat></trkpt>
  <trkpt lat="31.55124353" lon="74.84922915"><ele>191.000</ele><time>2025-02-24T12:17:33Z</time><speed>1.510</speed><sat>30</sat></trkpt>
  <trkpt lat="31.55125656" lon="74.84923200"><ele>191.000</ele><time>2025-02-24T12:17:34Z</time><speed>1.520</speed><sat>29</sat></trkpt>
  <trkpt lat="31.55127538" lon="74.84923376"><ele>191.000</ele><time>2025-02-24T12:17:35Z</time><speed>1.540</speed><sat>31</sat></trkpt>
  <trkpt lat="31.55129256" lon="74.84923468"><ele>191.000</ele><time>2025-02-24T12:17:36Z</time><speed>1.280</speed><sat>29</sat></trkpt>
  <trkpt lat="31.55131482" lon="74.84924650"><ele>192.000</ele><time>2025-02-24T12:17:38Z</time><speed>1.460</speed><sat>32</sat></trkpt>
  <trkpt lat="31.55133233" lon="74.84924784"><ele>192.000</ele><time>2025-02-24T12:17:39Z</time><speed>1.970</speed><sat>30</sat></trkpt>
  <trkpt lat="31.55135928" lon="74.84924843"><ele>191.000</ele><time>2025-02-24T12:17:40Z</time><speed>2.190</speed><sat>31</sat></trkpt>
  <trkpt lat="31.55137793" lon="74.84925815"><ele>191.000</ele><time>2025-02-24T12:17:41Z</time><speed>2.220</speed><sat>31</sat></trkpt>
  <trkpt lat="31.55140475" lon="74.84926402"><ele>190.000</ele><time>2025-02-24T12:17:42Z</time><speed>2.360</speed><sat>32</sat></trkpt>
  <trkpt lat="31.55143459" lon="74.84927391"><ele>190.000</ele><time>2025-02-24T12:17:43Z</time><speed>2.620</speed><sat>30</sat></trkpt>
  <trkpt lat="31.55146234" lon="74.84928782"><ele>190.000</ele><time>2025-02-24T12:17:44Z</time><speed>2.880</speed><sat>32</sat></trkpt>
  <trkpt lat="31.55148396" lon="74.84929830"><ele>190.000</ele><time>2025-02-24T12:17:45Z</time><speed>2.930</speed><sat>32</sat></trkpt>
  <trkpt lat="31.55150705" lon="74.84931272"><ele>190.000</ele><time>2025-02-24T12:17:46Z</time><speed>2.790</speed><sat>31</sat></trkpt>
  <trkpt lat="31.55153241" lon="74.84932797"><ele>190.000</ele><time>2025-02-24T12:17:47Z</time><speed>2.880</speed><sat>32</sat></trkpt>
  <trkpt lat="31.55155575" lon="74.84934348"><ele>190.000</ele><time>2025-02-24T12:17:48Z</time><speed>2.650</speed><sat>32</sat></trkpt>
  <trkpt lat="31.55158274" lon="74.84935999"><ele>189.000</ele><time>2025-02-24T12:17:49Z</time><speed>2.910</speed><sat>32</sat></trkpt>
  <trkpt lat="31.55160810" lon="74.84937407"><ele>189.000</ele><time>2025-02-24T12:17:50Z</time><speed>3.130</speed><sat>30</sat></trkpt>
  <trkpt lat="31.55166673" lon="74.84940207"><ele>189.000</ele><time>2025-02-24T12:17:52Z</time><speed>4.020</speed><sat>32</sat></trkpt>
  <trkpt lat="31.55173655" lon="74.84943601"><ele>189.000</ele><time>2025-02-24T12:17:54Z</time><speed>3.540</speed><sat>31</sat></trkpt>
  <trkpt lat="31.55176329" lon="74.84945194"><ele>189.000</ele><time>2025-02-24T12:17:55Z</time><speed>3.340</speed><sat>31</sat></trkpt>
  <trkpt lat="31.55178885" lon="74.84946392"><ele>189.000</ele><time>2025-02-24T12:17:56Z</time><speed>3.030</speed><sat>32</sat></trkpt>
  <trkpt lat="31.55181136" lon="74.84948019"><ele>189.000</ele><time>2025-02-24T12:17:57Z</time><speed>2.940</speed><sat>31</sat></trkpt>
  <trkpt lat="31.55183793" lon="74.84949544"><ele>189.000</ele><time>2025-02-24T12:17:58Z</time><speed>3.250</speed><sat>32</sat></trkpt>
  <trkpt lat="31.55186995" lon="74.84950919"><ele>188.000</ele><time>2025-02-24T12:17:59Z</time><speed>3.900</speed><sat>32</sat></trkpt>
  <trkpt lat="31.55193466" lon="74.84954649"><ele>188.000</ele><time>2025-02-24T12:18:01Z</time><speed>3.530</speed><sat>32</sat></trkpt>
  <trkpt lat="31.55196420" lon="74.84956208"><ele>188.000</ele><time>2025-02-24T12:18:02Z</time><speed>3.450</speed><sat>32</sat></trkpt>
  <trkpt lat="31.55199195" lon="74.84957976"><ele>188.000</ele><time>2025-02-24T12:18:03Z</time><speed>3.590</speed><sat>32</sat></trkpt>
  <trkpt lat="31.55202275" lon="74.84959569"><ele>188.000</ele><time>2025-02-24T12:18:04Z</time><speed>3.950</speed><sat>31</sat></trkpt>
  <trkpt lat="31.55205691" lon="74.84961103"><ele>188.000</ele><time>2025-02-24T12:18:05Z</time><speed>3.920</speed><sat>32</sat></trkpt>
  <trkpt lat="31.55209324" lon="74.84962838"><ele>188.000</ele><time>2025-02-24T12:18:06Z</time><speed>3.810</speed><sat>32</sat></trkpt>
  <trkpt lat="31.55212744" lon="74.84964464"><ele>187.000</ele><time>2025-02-24T12:18:07Z</time><speed>3.330</speed><sat>30</sat></trkpt>
  <trkpt lat="31.55215661" lon="74.84965503"><ele>187.000</ele><time>2025-02-24T12:18:08Z</time><speed>3.010</speed><sat>31</sat></trkpt>
  <trkpt lat="31.55218477" lon="74.84967138"><ele>187.000</ele><time>2025-02-24T12:18:09Z</time><speed>3.320</speed><sat>32</sat></trkpt>
  <trkpt lat="31.55221545" lon="74.84969183"><ele>187.000</ele><time>2025-02-24T12:18:10Z</time><speed>3.380</speed><sat>31</sat></trkpt>
  <trkpt lat="31.55224252" lon="74.84971052"><ele>187.000</ele><time>2025-02-24T12:18:11Z</time><speed>3.280</speed><sat>29</sat></trkpt>
  <trkpt lat="31.55226956" lon="74.84972745"><ele>186.000</ele><time>2025-02-24T12:18:12Z</time><speed>3.610</speed><sat>32</sat></trkpt>
  <trkpt lat="31.55233364" lon="74.84975805"><ele>186.000</ele><time>2025-02-24T12:18:14Z</time><speed>4.000</speed><sat>30</sat></trkpt>
  <trkpt lat="31.55236922" lon="74.84977221"><ele>186.000</ele><time>2025-02-24T12:18:15Z</time><speed>3.940</speed><sat>31</sat></trkpt>
  <trkpt lat="31.55240484" lon="74.84979115"><ele>185.000</ele><time>2025-02-24T12:18:16Z</time><speed>4.540</speed><sat>29</sat></trkpt>
  <trkpt lat="31.55245035" lon="74.84979912"><ele>185.000</ele><time>2025-02-24T12:18:17Z</time><speed>5.160</speed><sat>31</sat></trkpt>
  <trkpt lat="31.55251133" lon="74.84981680"><ele>184.000</ele><time>2025-02-24T12:18:18Z</time><speed>7.060</speed><sat>31</sat></trkpt>
  <trkpt lat="31.55256946" lon="74.84984371"><ele>184.000</ele><time>2025-02-24T12:18:19Z</time><speed>6.800</speed><sat>32</sat></trkpt>
  <trkpt lat="31.55262545" lon="74.84987045"><ele>184.000</ele><time>2025-02-24T12:18:20Z</time><speed>6.880</speed><sat>32</sat></trkpt>
  <trkpt lat="31.55268752" lon="74.84989601"><ele>185.000</ele><time>2025-02-24T12:18:21Z</time><speed>6.940</speed><sat>32</sat></trkpt>
  <trkpt lat="31.55274146" lon="74.84990976"><ele>184.000</ele><time>2025-02-24T12:18:22Z</time><speed>5.280</speed><sat>32</sat></trkpt>
  <trkpt lat="31.55278479" lon="74.84992166"><ele>184.000</ele><time>2025-02-24T12:18:23Z</time><speed>4.850</speed><sat>31</sat></trkpt>
  <trkpt lat="31.55283140" lon="74.84994337"><ele>184.000</ele><time>2025-02-24T12:18:24Z</time><speed>5.370</speed><sat>31</sat></trkpt>
  <trkpt lat="31.55288211" lon="74.84996751"><ele>184.000</ele><time>2025-02-24T12:18:25Z</time><speed>6.390</speed><sat>32</sat></trkpt>
  <trkpt lat="31.55294384" lon="74.84999224"><ele>184.000</ele><time>2025-02-24T12:18:26Z</time><speed>7.210</speed><sat>32</sat></trkpt>
  <trkpt lat="31.55300716" lon="74.85001319"><ele>184.000</ele><time>2025-02-24T12:18:27Z</time><speed>7.770</speed><sat>32</sat></trkpt>
  <trkpt lat="31.55307409" lon="74.85004093"><ele>183.000</ele><time>2025-02-24T12:18:28Z</time><speed>7.570</speed><sat>31</sat></trkpt>
  <trkpt lat="31.55313625" lon="74.85006507"><ele>183.000</ele><time>2025-02-24T12:18:29Z</time><speed>8.100</speed><sat>32</sat></trkpt>
  <trkpt lat="31.55320397" lon="74.85009600"><ele>183.000</ele><time>2025-02-24T12:18:30Z</time><speed>8.350</speed><sat>31</sat></trkpt>
  <trkpt lat="31.55327404" lon="74.85012844"><ele>183.000</ele><time>2025-02-24T12:18:31Z</time><speed>8.170</speed><sat>32</sat></trkpt>
  <trkpt lat="31.55334340" lon="74.85016088"><ele>183.000</ele><time>2025-02-24T12:18:32Z</time><speed>8.170</speed><sat>31</sat></trkpt>
  <trkpt lat="31.55341067" lon="74.85019038"><ele>183.000</ele><time>2025-02-24T12:18:33Z</time><speed>7.990</speed><sat>31</sat></trkpt>
  <trkpt lat="31.55353958" lon="74.85024336"><ele>183.000</ele><time>2025-02-24T12:18:35Z</time><speed>7.360</speed><sat>30</sat></trkpt>
  <trkpt lat="31.55360295" lon="74.85026775"><ele>183.000</ele><time>2025-02-24T12:18:36Z</time><speed>7.130</speed><sat>32</sat></trkpt>
  <trkpt lat="31.55373316" lon="74.85031201"><ele>183.000</ele><time>2025-02-24T12:18:38Z</time><speed>7.860</speed><sat>32</sat></trkpt>
  <trkpt lat="31.55380282" lon="74.85034880"><ele>183.000</ele><time>2025-02-24T12:18:39Z</time><speed>8.210</speed><sat>32</sat></trkpt>
  <trkpt lat="31.55387180" lon="74.85037738"><ele>183.000</ele><time>2025-02-24T12:18:40Z</time><speed>8.380</speed><sat>32</sat></trkpt>
  <trkpt lat="31.55394594" lon="74.85040538"><ele>183.000</ele><time>2025-02-24T12:18:41Z</time><speed>8.460</speed><sat>32</sat></trkpt>
  <trkpt lat="31.55401601" lon="74.85042935"><ele>182.000</ele><time>2025-02-24T12:18:42Z</time><speed>8.130</speed><sat>31</sat></trkpt>
  <trkpt lat="31.55407418" lon="74.85044947"><ele>182.000</ele><time>2025-02-24T12:18:43Z</time><speed>5.090</speed><sat>32</sat></trkpt>
  <trkpt lat="31.55410855" lon="74.85046648"><ele>183.000</ele><time>2025-02-24T12:18:44Z</time><speed>3.020</speed><sat>32</sat></trkpt>
  <trkpt lat="31.55412992" lon="74.85047998"><ele>183.000</ele><time>2025-02-24T12:18:45Z</time><speed>3.090</speed><sat>32</sat></trkpt>
  <trkpt lat="31.55415624" lon="74.85049381"><ele>183.000</ele><time>2025-02-24T12:18:46Z</time><speed>3.070</speed><sat>32</sat></trkpt>
  <trkpt lat="31.55418264" lon="74.85050865"><ele>183.000</ele><time>2025-02-24T12:18:47Z</time><speed>3.060</speed><sat>32</sat></trkpt>
  <trkpt lat="31.55421081" lon="74.85052616"><ele>183.000</ele><time>2025-02-24T12:18:48Z</time><speed>3.390</speed><sat>32</sat></trkpt>
  <trkpt lat="31.55424270" lon="74.85053957"><ele>183.000</ele><time>2025-02-24T12:18:49Z</time><speed>3.950</speed><sat>32</sat></trkpt>
  <trkpt lat="31.55427333" lon="74.85055558"><ele>183.000</ele><time>2025-02-24T12:18:50Z</time><speed>4.330</speed><sat>32</sat></trkpt>
  <trkpt lat="31.55430695" lon="74.85056581"><ele>183.000</ele><time>2025-02-24T12:18:51Z</time><speed>4.520</speed><sat>31</sat></trkpt>
  <trkpt lat="31.55434818" lon="74.85057025"><ele>183.000</ele><time>2025-02-24T12:18:52Z</time><speed>4.970</speed><sat>32</sat></trkpt>
  <trkpt lat="31.55440636" lon="74.85057981"><ele>183.000</ele><time>2025-02-24T12:18:53Z</time><speed>6.100</speed><sat>31</sat></trkpt>
  <trkpt lat="31.55445807" lon="74.85059758"><ele>182.000</ele><time>2025-02-24T12:18:54Z</time><speed>5.800</speed><sat>31</sat></trkpt>
  <trkpt lat="31.55450765" lon="74.85062205"><ele>183.000</ele><time>2025-02-24T12:18:55Z</time><speed>5.320</speed><sat>32</sat></trkpt>
  <trkpt lat="31.55455103" lon="74.85063806"><ele>183.000</ele><time>2025-02-24T12:18:56Z</time><speed>4.100</speed><sat>32</sat></trkpt>
  <trkpt lat="31.55458267" lon="74.85065223"><ele>183.000</ele><time>2025-02-24T12:18:57Z</time><speed>3.820</speed><sat>32</sat></trkpt>
  <trkpt lat="31.55461406" lon="74.85066371"><ele>183.000</ele><time>2025-02-24T12:18:58Z</time><speed>3.630</speed><sat>32</sat></trkpt>
  <trkpt lat="31.55464608" lon="74.85067343"><ele>183.000</ele><time>2025-02-24T12:18:59Z</time><speed>3.610</speed><sat>31</sat></trkpt>
  <trkpt lat="31.55467583" lon="74.85068408"><ele>183.000</ele><time>2025-02-24T12:19:00Z</time><speed>3.370</speed><sat>31</sat></trkpt>
  <trkpt lat="31.55470362" lon="74.85069531"><ele>183.000</ele><time>2025-02-24T12:19:01Z</time><speed>3.010</speed><sat>30</sat></trkpt>
  <trkpt lat="31.55472763" lon="74.85070746"><ele>183.000</ele><time>2025-02-24T12:19:02Z</time><speed>2.870</speed><sat>31</sat></trkpt>
  <trkpt lat="31.55475228" lon="74.85072096"><ele>183.000</ele><time>2025-02-24T12:19:03Z</time><speed>3.030</speed><sat>31</sat></trkpt>
  <trkpt lat="31.55479766" lon="74.85074812"><ele>183.000</ele><time>2025-02-24T12:19:05Z</time><speed>2.730</speed><sat>32</sat></trkpt>
  <trkpt lat="31.55481908" lon="74.85076044"><ele>183.000</ele><time>2025-02-24T12:19:06Z</time><speed>2.960</speed><sat>32</sat></trkpt>
  <trkpt lat="31.55484376" lon="74.85077343"><ele>182.000</ele><time>2025-02-24T12:19:07Z</time><speed>2.990</speed><sat>31</sat></trkpt>
  <trkpt lat="31.55487050" lon="74.85078500"><ele>182.000</ele><time>2025-02-24T12:19:08Z</time><speed>3.070</speed><sat>32</sat></trkpt>
  <trkpt lat="31.55489917" lon="74.85079933"><ele>182.000</ele><time>2025-02-24T12:19:09Z</time><speed>3.250</speed><sat>32</sat></trkpt>
  <trkpt lat="31.55492922" lon="74.85081391"><ele>182.000</ele><time>2025-02-24T12:19:10Z</time><speed>3.640</speed><sat>32</sat></trkpt>
  <trkpt lat="31.55496283" lon="74.85082858"><ele>182.000</ele><time>2025-02-24T12:19:11Z</time><speed>3.720</speed><sat>32</sat></trkpt>
  <trkpt lat="31.55500063" lon="74.85084350"><ele>182.000</ele><time>2025-02-24T12:19:12Z</time><speed>3.940</speed><sat>31</sat></trkpt>
  <trkpt lat="31.55503558" lon="74.85085624"><ele>183.000</ele><time>2025-02-24T12:19:13Z</time><speed>3.950</speed><sat>32</sat></trkpt>
  <trkpt lat="31.55510566" lon="74.85088558"><ele>182.000</ele><time>2025-02-24T12:19:15Z</time><speed>3.560</speed><sat>32</sat></trkpt>
  <trkpt lat="31.55513382" lon="74.85089648"><ele>182.000</ele><time>2025-02-24T12:19:16Z</time><speed>3.250</speed><sat>32</sat></trkpt>
  <trkpt lat="31.55516291" lon="74.85089882"><ele>182.000</ele><time>2025-02-24T12:19:17Z</time><speed>2.910</speed><sat>32</sat></trkpt>
  <trkpt lat="31.55518625" lon="74.85090444"><ele>181.000</ele><time>2025-02-24T12:19:18Z</time><speed>2.680</speed><sat>29</sat></trkpt>
  <trkpt lat="31.55520570" lon="74.85091039"><ele>181.000</ele><time>2025-02-24T12:19:19Z</time><speed>2.460</speed><sat>30</sat></trkpt>
  <trkpt lat="31.55522715" lon="74.85091751"><ele>181.000</ele><time>2025-02-24T12:19:20Z</time><speed>2.320</speed><sat>32</sat></trkpt>
  <trkpt lat="31.55524714" lon="74.85092682"><ele>181.000</ele><time>2025-02-24T12:19:21Z</time><speed>2.560</speed><sat>31</sat></trkpt>
  <trkpt lat="31.55526776" lon="74.85093151"><ele>181.000</ele><time>2025-02-24T12:19:22Z</time><speed>2.480</speed><sat>31</sat></trkpt>
  <trkpt lat="31.55528587" lon="74.85093671"><ele>181.000</ele><time>2025-02-24T12:19:23Z</time><speed>2.590</speed><sat>31</sat></trkpt>
  <trkpt lat="31.55530636" lon="74.85094350"><ele>181.000</ele><time>2025-02-24T12:19:24Z</time><speed>2.490</speed><sat>30</sat></trkpt>
  <trkpt lat="31.55532681" lon="74.85095004"><ele>181.000</ele><time>2025-02-24T12:19:25Z</time><speed>2.580</speed><sat>32</sat></trkpt>
  <trkpt lat="31.55534982" lon="74.85096160"><ele>182.000</ele><time>2025-02-24T12:19:26Z</time><speed>2.590</speed><sat>31</sat></trkpt>
  <trkpt lat="31.55537430" lon="74.85097040"><ele>182.000</ele><time>2025-02-24T12:19:27Z</time><speed>2.910</speed><sat>32</sat></trkpt>
  <trkpt lat="31.55539810" lon="74.85097929"><ele>182.000</ele><time>2025-02-24T12:19:28Z</time><speed>2.760</speed><sat>32</sat></trkpt>
  <trkpt lat="31.55542300" lon="74.85098801"><ele>182.000</ele><time>2025-02-24T12:19:29Z</time><speed>2.790</speed><sat>32</sat></trkpt>
  <trkpt lat="31.55544760" lon="74.85099589"><ele>182.000</ele><time>2025-02-24T12:19:30Z</time><speed>2.710</speed><sat>31</sat></trkpt>
  <trkpt lat="31.55547073" lon="74.85100410"><ele>182.000</ele><time>2025-02-24T12:19:31Z</time><speed>2.870</speed><sat>32</sat></trkpt>
  <trkpt lat="31.55549797" lon="74.85101525"><ele>182.000</ele><time>2025-02-24T12:19:32Z</time><speed>3.050</speed><sat>30</sat></trkpt>
  <trkpt lat="31.55552182" lon="74.85102841"><ele>182.000</ele><time>2025-02-24T12:19:33Z</time><speed>3.050</speed><sat>32</sat></trkpt>
  <trkpt lat="31.55555111" lon="74.85103947"><ele>182.000</ele><time>2025-02-24T12:19:34Z</time><speed>3.730</speed><sat>32</sat></trkpt>
  <trkpt lat="31.55558120" lon="74.85105431"><ele>182.000</ele><time>2025-02-24T12:19:35Z</time><speed>3.770</speed><sat>32</sat></trkpt>
  <trkpt lat="31.55561498" lon="74.85107426"><ele>182.000</ele><time>2025-02-24T12:19:36Z</time><speed>4.740</speed><sat>31</sat></trkpt>
  <trkpt lat="31.55565538" lon="74.85109580"><ele>182.000</ele><time>2025-02-24T12:19:37Z</time><speed>4.660</speed><sat>32</sat></trkpt>
  <trkpt lat="31.55570174" lon="74.85111248"><ele>182.000</ele><time>2025-02-24T12:19:38Z</time><speed>5.470</speed><sat>32</sat></trkpt>
  <trkpt lat="31.55575672" lon="74.85112564"><ele>182.000</ele><time>2025-02-24T12:19:39Z</time><speed>6.480</speed><sat>32</sat></trkpt>
  <trkpt lat="31.55581116" lon="74.85114374"><ele>183.000</ele><time>2025-02-24T12:19:40Z</time><speed>6.560</speed><sat>32</sat></trkpt>
  <trkpt lat="31.55587084" lon="74.85116730"><ele>183.000</ele><time>2025-02-24T12:19:41Z</time><speed>6.340</speed><sat>32</sat></trkpt>
  <trkpt lat="31.55592159" lon="74.85118825"><ele>183.000</ele><time>2025-02-24T12:19:42Z</time><speed>6.280</speed><sat>31</sat></trkpt>
  <trkpt lat="31.55596987" lon="74.85121256"><ele>183.000</ele><time>2025-02-24T12:19:43Z</time><speed>5.930</speed><sat>32</sat></trkpt>
  <trkpt lat="31.55601949" lon="74.85123485"><ele>183.000</ele><time>2025-02-24T12:19:44Z</time><speed>5.740</speed><sat>32</sat></trkpt>
  <trkpt lat="31.55605847" lon="74.85125246"><ele>183.000</ele><time>2025-02-24T12:19:45Z</time><speed>4.290</speed><sat>32</sat></trkpt>
  <trkpt lat="31.55608869" lon="74.85126503"><ele>183.000</ele><time>2025-02-24T12:19:46Z</time><speed>3.340</speed><sat>32</sat></trkpt>
  <trkpt lat="31.55611974" lon="74.85127894"><ele>183.000</ele><time>2025-02-24T12:19:47Z</time><speed>3.560</speed><sat>32</sat></trkpt>
  <trkpt lat="31.55615281" lon="74.85129420"><ele>183.000</ele><time>2025-02-24T12:19:48Z</time><speed>4.200</speed><sat>32</sat></trkpt>
  <trkpt lat="31.55618919" lon="74.85130719"><ele>183.000</ele><time>2025-02-24T12:19:49Z</time><speed>4.720</speed><sat>32</sat></trkpt>
  <trkpt lat="31.55623307" lon="74.85131892"><ele>183.000</ele><time>2025-02-24T12:19:50Z</time><speed>5.190</speed><sat>32</sat></trkpt>
  <trkpt lat="31.55628097" lon="74.85134214"><ele>183.000</ele><time>2025-02-24T12:19:51Z</time><speed>5.140</speed><sat>32</sat></trkpt>
  <trkpt lat="31.55632434" lon="74.85136419"><ele>183.000</ele><time>2025-02-24T12:19:52Z</time><speed>5.130</speed><sat>32</sat></trkpt>
  <trkpt lat="31.55636336" lon="74.85139000"><ele>183.000</ele><time>2025-02-24T12:19:53Z</time><speed>4.860</speed><sat>31</sat></trkpt>
  <trkpt lat="31.55640037" lon="74.85141188"><ele>184.000</ele><time>2025-02-24T12:19:54Z</time><speed>4.220</speed><sat>32</sat></trkpt>
  <trkpt lat="31.55643302" lon="74.85142102"><ele>183.000</ele><time>2025-02-24T12:19:55Z</time><speed>3.230</speed><sat>32</sat></trkpt>
  <trkpt lat="31.55646101" lon="74.85143007"><ele>183.000</ele><time>2025-02-24T12:19:56Z</time><speed>2.940</speed><sat>32</sat></trkpt>
  <trkpt lat="31.55648544" lon="74.85143669"><ele>183.000</ele><time>2025-02-24T12:19:57Z</time><speed>2.780</speed><sat>32</sat></trkpt>
  <trkpt lat="31.55651051" lon="74.85144499"><ele>183.000</ele><time>2025-02-24T12:19:58Z</time><speed>3.370</speed><sat>31</sat></trkpt>
  <trkpt lat="31.55653938" lon="74.85145597"><ele>183.000</ele><time>2025-02-24T12:19:59Z</time><speed>3.650</speed><sat>32</sat></trkpt>
  <trkpt lat="31.55657454" lon="74.85147282"><ele>183.000</ele><time>2025-02-24T12:20:00Z</time><speed>4.480</speed><sat>31</sat></trkpt>
  <trkpt lat="31.55661251" lon="74.85149494"><ele>183.000</ele><time>2025-02-24T12:20:01Z</time><speed>4.070</speed><sat>32</sat></trkpt>
  <trkpt lat="31.55664424" lon="74.85150861"><ele>183.000</ele><time>2025-02-24T12:20:02Z</time><speed>3.800</speed><sat>31</sat></trkpt>
  <trkpt lat="31.55667542" lon="74.85151833"><ele>183.000</ele><time>2025-02-24T12:20:03Z</time><speed>3.260</speed><sat>32</sat></trkpt>
  <trkpt lat="31.55670396" lon="74.85152755"><ele>183.000</ele><time>2025-02-24T12:20:04Z</time><speed>3.030</speed><sat>32</sat></trkpt>
  <trkpt lat="31.55673091" lon="74.85153610"><ele>183.000</ele><time>2025-02-24T12:20:05Z</time><speed>2.880</speed><sat>32</sat></trkpt>
  <trkpt lat="31.55675438" lon="74.85154817"><ele>183.000</ele><time>2025-02-24T12:20:06Z</time><speed>2.920</speed><sat>32</sat></trkpt>
  <trkpt lat="31.55678045" lon="74.85156192"><ele>183.000</ele><time>2025-02-24T12:20:07Z</time><speed>3.610</speed><sat>32</sat></trkpt>
  <trkpt lat="31.55681301" lon="74.85158019"><ele>183.000</ele><time>2025-02-24T12:20:08Z</time><speed>3.980</speed><sat>32</sat></trkpt>
  <trkpt lat="31.55685035" lon="74.85159704"><ele>183.000</ele><time>2025-02-24T12:20:09Z</time><speed>4.480</speed><sat>31</sat></trkpt>
  <trkpt lat="31.55689063" lon="74.85161833"><ele>184.000</ele><time>2025-02-24T12:20:10Z</time><speed>5.150</speed><sat>31</sat></trkpt>
  <trkpt lat="31.55693886" lon="74.85163568"><ele>184.000</ele><time>2025-02-24T12:20:11Z</time><speed>5.760</speed><sat>31</sat></trkpt>
  <trkpt lat="31.55698869" lon="74.85165412"><ele>184.000</ele><time>2025-02-24T12:20:12Z</time><speed>5.560</speed><sat>32</sat></trkpt>
  <trkpt lat="31.55703706" lon="74.85167197"><ele>184.000</ele><time>2025-02-24T12:20:13Z</time><speed>5.150</speed><sat>32</sat></trkpt>
  <trkpt lat="31.55708337" lon="74.85168412"><ele>184.000</ele><time>2025-02-24T12:20:14Z</time><speed>5.010</speed><sat>32</sat></trkpt>
  <trkpt lat="31.55712532" lon="74.85170030"><ele>184.000</ele><time>2025-02-24T12:20:15Z</time><speed>4.980</speed><sat>32</sat></trkpt>
  <trkpt lat="31.55716568" lon="74.85171857"><ele>183.000</ele><time>2025-02-24T12:20:16Z</time><speed>5.460</speed><sat>32</sat></trkpt>
  <trkpt lat="31.55721555" lon="74.85174179"><ele>184.000</ele><time>2025-02-24T12:20:17Z</time><speed>5.970</speed><sat>32</sat></trkpt>
  <trkpt lat="31.55727142" lon="74.85175931"><ele>184.000</ele><time>2025-02-24T12:20:18Z</time><speed>6.920</speed><sat>32</sat></trkpt>
  <trkpt lat="31.55733516" lon="74.85178052"><ele>183.000</ele><time>2025-02-24T12:20:19Z</time><speed>7.390</speed><sat>32</sat></trkpt>
  <trkpt lat="31.55739689" lon="74.85180675"><ele>183.000</ele><time>2025-02-24T12:20:20Z</time><speed>7.100</speed><sat>32</sat></trkpt>
  <trkpt lat="31.55745146" lon="74.85183089"><ele>183.000</ele><time>2025-02-24T12:20:21Z</time><speed>5.940</speed><sat>31</sat></trkpt>
  <trkpt lat="31.55748934" lon="74.85184330"><ele>182.000</ele><time>2025-02-24T12:20:22Z</time><speed>3.670</speed><sat>32</sat></trkpt>
  <trkpt lat="31.55752136" lon="74.85185780"><ele>182.000</ele><time>2025-02-24T12:20:23Z</time><speed>3.370</speed><sat>32</sat></trkpt>
  <trkpt lat="31.55754848" lon="74.85187163"><ele>182.000</ele><time>2025-02-24T12:20:24Z</time><speed>3.430</speed><sat>32</sat></trkpt>
  <trkpt lat="31.55757689" lon="74.85188889"><ele>182.000</ele><time>2025-02-24T12:20:25Z</time><speed>3.320</speed><sat>32</sat></trkpt>
  <trkpt lat="31.55760539" lon="74.85190515"><ele>182.000</ele><time>2025-02-24T12:20:26Z</time><speed>3.280</speed><sat>31</sat></trkpt>
  <trkpt lat="31.55763054" lon="74.85191706"><ele>182.000</ele><time>2025-02-24T12:20:27Z</time><speed>3.700</speed><sat>32</sat></trkpt>
  <trkpt lat="31.55766499" lon="74.85193223"><ele>182.000</ele><time>2025-02-24T12:20:28Z</time><speed>4.130</speed><sat>32</sat></trkpt>
  <trkpt lat="31.55770069" lon="74.85194648"><ele>183.000</ele><time>2025-02-24T12:20:29Z</time><speed>4.700</speed><sat>32</sat></trkpt>
  <trkpt lat="31.55774390" lon="74.85196031"><ele>183.000</ele><time>2025-02-24T12:20:30Z</time><speed>4.820</speed><sat>32</sat></trkpt>
  <trkpt lat="31.55778414" lon="74.85197464"><ele>183.000</ele><time>2025-02-24T12:20:31Z</time><speed>3.950</speed><sat>32</sat></trkpt>
  <trkpt lat="31.55781792" lon="74.85198805"><ele>182.000</ele><time>2025-02-24T12:20:32Z</time><speed>3.620</speed><sat>31</sat></trkpt>
  <trkpt lat="31.55784599" lon="74.85199886"><ele>182.000</ele><time>2025-02-24T12:20:33Z</time><speed>3.080</speed><sat>32</sat></trkpt>
  <trkpt lat="31.55786842" lon="74.85200674"><ele>182.000</ele><time>2025-02-24T12:20:34Z</time><speed>2.790</speed><sat>32</sat></trkpt>
  <trkpt lat="31.55789407" lon="74.85201303"><ele>182.000</ele><time>2025-02-24T12:20:35Z</time><speed>2.690</speed><sat>32</sat></trkpt>
  <trkpt lat="31.55791753" lon="74.85202359"><ele>182.000</ele><time>2025-02-24T12:20:36Z</time><speed>2.430</speed><sat>32</sat></trkpt>
  <trkpt lat="31.55793690" lon="74.85203424"><ele>182.000</ele><time>2025-02-24T12:20:37Z</time><speed>2.510</speed><sat>32</sat></trkpt>
  <trkpt lat="31.55795764" lon="74.85204647"><ele>182.000</ele><time>2025-02-24T12:20:38Z</time><speed>2.810</speed><sat>31</sat></trkpt>
  <trkpt lat="31.55797948" lon="74.85205905"><ele>182.000</ele><time>2025-02-24T12:20:39Z</time><speed>2.910</speed><sat>32</sat></trkpt>
  <trkpt lat="31.55800286" lon="74.85207103"><ele>182.000</ele><time>2025-02-24T12:20:40Z</time><speed>3.020</speed><sat>32</sat></trkpt>
  <trkpt lat="31.55802981" lon="74.85208411"><ele>182.000</ele><time>2025-02-24T12:20:41Z</time><speed>3.390</speed><sat>32</sat></trkpt>
  <trkpt lat="31.55806367" lon="74.85209769"><ele>182.000</ele><time>2025-02-24T12:20:42Z</time><speed>3.320</speed><sat>31</sat></trkpt>
  <trkpt lat="31.55809443" lon="74.85211009"><ele>182.000</ele><time>2025-02-24T12:20:43Z</time><speed>3.450</speed><sat>30</sat></trkpt>
  <trkpt lat="31.55812147" lon="74.85212032"><ele>182.000</ele><time>2025-02-24T12:20:44Z</time><speed>3.490</speed><sat>32</sat></trkpt>
  <trkpt lat="31.55819581" lon="74.85215007"><ele>182.000</ele><time>2025-02-24T12:20:46Z</time><speed>4.010</speed><sat>32</sat></trkpt>
  <trkpt lat="31.55823596" lon="74.85215753"><ele>182.000</ele><time>2025-02-24T12:20:47Z</time><speed>4.170</speed><sat>32</sat></trkpt>
  <trkpt lat="31.55827423" lon="74.85217396"><ele>182.000</ele><time>2025-02-24T12:20:48Z</time><speed>4.090</speed><sat>31</sat></trkpt>
  <trkpt lat="31.55830633" lon="74.85218662"><ele>182.000</ele><time>2025-02-24T12:20:49Z</time><speed>4.020</speed><sat>32</sat></trkpt>
  <trkpt lat="31.55834145" lon="74.85220833"><ele>181.000</ele><time>2025-02-24T12:20:50Z</time><speed>4.040</speed><sat>32</sat></trkpt>
  <trkpt lat="31.55838231" lon="74.85222191"><ele>181.000</ele><time>2025-02-24T12:20:51Z</time><speed>4.030</speed><sat>32</sat></trkpt>
  <trkpt lat="31.55842032" lon="74.85223188"><ele>181.000</ele><time>2025-02-24T12:20:52Z</time><speed>4.120</speed><sat>32</sat></trkpt>
  <trkpt lat="31.55845569" lon="74.85224093"><ele>181.000</ele><time>2025-02-24T12:20:53Z</time><speed>4.150</speed><sat>32</sat></trkpt>
  <trkpt lat="31.55849123" lon="74.85225476"><ele>181.000</ele><time>2025-02-24T12:20:54Z</time><speed>4.180</speed><sat>32</sat></trkpt>
  <trkpt lat="31.55852568" lon="74.85227027"><ele>181.000</ele><time>2025-02-24T12:20:55Z</time><speed>3.810</speed><sat>32</sat></trkpt>
  <trkpt lat="31.55855611" lon="74.85228519"><ele>181.000</ele><time>2025-02-24T12:20:56Z</time><speed>3.660</speed><sat>32</sat></trkpt>
  <trkpt lat="31.55858746" lon="74.85230061"><ele>181.000</ele><time>2025-02-24T12:20:57Z</time><speed>3.540</speed><sat>32</sat></trkpt>
  <trkpt lat="31.55861646" lon="74.85231495"><ele>181.000</ele><time>2025-02-24T12:20:58Z</time><speed>3.450</speed><sat>31</sat></trkpt>
  <trkpt lat="31.55864001" lon="74.85232911"><ele>181.000</ele><time>2025-02-24T12:20:59Z</time><speed>3.040</speed><sat>32</sat></trkpt>
  <trkpt lat="31.55866700" lon="74.85234554"><ele>180.000</ele><time>2025-02-24T12:21:00Z</time><speed>3.020</speed><sat>32</sat></trkpt>
  <trkpt lat="31.55871985" lon="74.85236725"><ele>180.000</ele><time>2025-02-24T12:21:02Z</time><speed>3.060</speed><sat>30</sat></trkpt>
  <trkpt lat="31.55874881" lon="74.85238133"><ele>180.000</ele><time>2025-02-24T12:21:03Z</time><speed>3.550</speed><sat>31</sat></trkpt>
  <trkpt lat="31.55878259" lon="74.85239122"><ele>179.000</ele><time>2025-02-24T12:21:04Z</time><speed>3.770</speed><sat>32</sat></trkpt>
  <trkpt lat="31.55881716" lon="74.85240564"><ele>179.000</ele><time>2025-02-24T12:21:05Z</time><speed>3.680</speed><sat>31</sat></trkpt>
  <trkpt lat="31.55884788" lon="74.85241922"><ele>179.000</ele><time>2025-02-24T12:21:06Z</time><speed>3.770</speed><sat>31</sat></trkpt>
  <trkpt lat="31.55888292" lon="74.85243171"><ele>179.000</ele><time>2025-02-24T12:21:07Z</time><speed>3.920</speed><sat>31</sat></trkpt>
  <trkpt lat="31.55892148" lon="74.85244688"><ele>179.000</ele><time>2025-02-24T12:21:08Z</time><speed>4.170</speed><sat>28</sat></trkpt>
  <trkpt lat="31.55896293" lon="74.85246205"><ele>179.000</ele><time>2025-02-24T12:21:09Z</time><speed>4.280</speed><sat>32</sat></trkpt>
  <trkpt lat="31.55900630" lon="74.85248116"><ele>178.000</ele><time>2025-02-24T12:21:10Z</time><speed>5.250</speed><sat>31</sat></trkpt>
  <trkpt lat="31.55905643" lon="74.85250186"><ele>178.000</ele><time>2025-02-24T12:21:11Z</time><speed>5.600</speed><sat>31</sat></trkpt>
  <trkpt lat="31.55910395" lon="74.85251904"><ele>179.000</ele><time>2025-02-24T12:21:12Z</time><speed>5.570</speed><sat>30</sat></trkpt>
  <trkpt lat="31.55915215" lon="74.85253656"><ele>179.000</ele><time>2025-02-24T12:21:13Z</time><speed>5.320</speed><sat>32</sat></trkpt>
  <trkpt lat="31.55919737" lon="74.85255383"><ele>179.000</ele><time>2025-02-24T12:21:14Z</time><speed>5.320</speed><sat>32</sat></trkpt>
  <trkpt lat="31.55924305" lon="74.85257654"><ele>179.000</ele><time>2025-02-24T12:21:15Z</time><speed>5.270</speed><sat>32</sat></trkpt>
  <trkpt lat="31.55928781" lon="74.85259800"><ele>178.000</ele><time>2025-02-24T12:21:16Z</time><speed>5.160</speed><sat>32</sat></trkpt>
  <trkpt lat="31.55933693" lon="74.85261963"><ele>178.000</ele><time>2025-02-24T12:21:17Z</time><speed>5.310</speed><sat>31</sat></trkpt>
  <trkpt lat="31.55938650" lon="74.85264016"><ele>178.000</ele><time>2025-02-24T12:21:18Z</time><speed>5.280</speed><sat>32</sat></trkpt>
  <trkpt lat="31.55943353" lon="74.85265642"><ele>178.000</ele><time>2025-02-24T12:21:19Z</time><speed>5.320</speed><sat>32</sat></trkpt>
  <trkpt lat="31.55948042" lon="74.85267864"><ele>178.000</ele><time>2025-02-24T12:21:20Z</time><speed>5.320</speed><sat>30</sat></trkpt>
  <trkpt lat="31.55952900" lon="74.85269976"><ele>178.000</ele><time>2025-02-24T12:21:21Z</time><speed>5.400</speed><sat>30</sat></trkpt>
  <trkpt lat="31.55957732" lon="74.85272130"><ele>178.000</ele><time>2025-02-24T12:21:22Z</time><speed>5.400</speed><sat>31</sat></trkpt>
  <trkpt lat="31.55962459" lon="74.85274452"><ele>178.000</ele><time>2025-02-24T12:21:23Z</time><speed>5.540</speed><sat>31</sat></trkpt>
  <trkpt lat="31.55966990" lon="74.85276916"><ele>178.000</ele><time>2025-02-24T12:21:24Z</time><speed>5.740</speed><sat>31</sat></trkpt>
  <trkpt lat="31.55971705" lon="74.85278936"><ele>179.000</ele><time>2025-02-24T12:21:25Z</time><speed>5.460</speed><sat>32</sat></trkpt>
  <trkpt lat="31.55976403" lon="74.85280805"><ele>179.000</ele><time>2025-02-24T12:21:26Z</time><speed>5.390</speed><sat>32</sat></trkpt>
  <trkpt lat="31.55981205" lon="74.85282591"><ele>179.000</ele><time>2025-02-24T12:21:27Z</time><speed>5.410</speed><sat>29</sat></trkpt>
  <trkpt lat="31.55985937" lon="74.85284368"><ele>179.000</ele><time>2025-02-24T12:21:28Z</time><speed>5.090</speed><sat>30</sat></trkpt>
  <trkpt lat="31.55990241" lon="74.85285759"><ele>179.000</ele><time>2025-02-24T12:21:29Z</time><speed>4.840</speed><sat>32</sat></trkpt>
  <trkpt lat="31.55997165" lon="74.85289313"><ele>179.000</ele><time>2025-02-24T12:21:31Z</time><speed>4.420</speed><sat>32</sat></trkpt>
  <trkpt lat="31.56000601" lon="74.85291484"><ele>179.000</ele><time>2025-02-24T12:21:32Z</time><speed>4.010</speed><sat>31</sat></trkpt>
  <trkpt lat="31.56003644" lon="74.85292590"><ele>179.000</ele><time>2025-02-24T12:21:33Z</time><speed>4.080</speed><sat>32</sat></trkpt>
  <trkpt lat="31.56007286" lon="74.85294258"><ele>179.000</ele><time>2025-02-24T12:21:34Z</time><speed>4.020</speed><sat>32</sat></trkpt>
  <trkpt lat="31.56010982" lon="74.85295549"><ele>179.000</ele><time>2025-02-24T12:21:35Z</time><speed>3.820</speed><sat>32</sat></trkpt>
  <trkpt lat="31.56014104" lon="74.85297091"><ele>179.000</ele><time>2025-02-24T12:21:36Z</time><speed>3.830</speed><sat>32</sat></trkpt>
  <trkpt lat="31.56017361" lon="74.85298592"><ele>179.000</ele><time>2025-02-24T12:21:37Z</time><speed>3.860</speed><sat>32</sat></trkpt>
  <trkpt lat="31.56020584" lon="74.85299975"><ele>179.000</ele><time>2025-02-24T12:21:38Z</time><speed>3.870</speed><sat>32</sat></trkpt>
  <trkpt lat="31.56024150" lon="74.85301098"><ele>179.000</ele><time>2025-02-24T12:21:39Z</time><speed>3.800</speed><sat>32</sat></trkpt>
  <trkpt lat="31.56028018" lon="74.85302271"><ele>178.000</ele><time>2025-02-24T12:21:40Z</time><speed>4.460</speed><sat>32</sat></trkpt>
  <trkpt lat="31.56032440" lon="74.85304249"><ele>178.000</ele><time>2025-02-24T12:21:41Z</time><speed>5.160</speed><sat>31</sat></trkpt>
  <trkpt lat="31.56037477" lon="74.85306060"><ele>178.000</ele><time>2025-02-24T12:21:42Z</time><speed>5.710</speed><sat>32</sat></trkpt>
  <trkpt lat="31.56042356" lon="74.85307946"><ele>178.000</ele><time>2025-02-24T12:21:43Z</time><speed>5.790</speed><sat>32</sat></trkpt>
  <trkpt lat="31.56052183" lon="74.85311701"><ele>178.000</ele><time>2025-02-24T12:21:45Z</time><speed>5.090</speed><sat>32</sat></trkpt>
  <trkpt lat="31.56056441" lon="74.85312891"><ele>178.000</ele><time>2025-02-24T12:21:46Z</time><speed>5.070</speed><sat>31</sat></trkpt>
  <trkpt lat="31.56060435" lon="74.85314065"><ele>178.000</ele><time>2025-02-24T12:21:47Z</time><speed>4.730</speed><sat>32</sat></trkpt>
  <trkpt lat="31.56063834" lon="74.85315674"><ele>178.000</ele><time>2025-02-24T12:21:48Z</time><speed>3.130</speed><sat>32</sat></trkpt>
  <trkpt lat="31.56066219" lon="74.85317057"><ele>178.000</ele><time>2025-02-24T12:21:49Z</time><speed>2.750</speed><sat>32</sat></trkpt>
  <trkpt lat="31.56068721" lon="74.85317996"><ele>178.000</ele><time>2025-02-24T12:21:50Z</time><speed>3.220</speed><sat>32</sat></trkpt>
  <trkpt lat="31.56072338" lon="74.85319060"><ele>178.000</ele><time>2025-02-24T12:21:51Z</time><speed>4.900</speed><sat>32</sat></trkpt>
  <trkpt lat="31.56076491" lon="74.85320770"><ele>178.000</ele><time>2025-02-24T12:21:52Z</time><speed>5.220</speed><sat>31</sat></trkpt>
  <trkpt lat="31.56080602" lon="74.85322505"><ele>179.000</ele><time>2025-02-24T12:21:53Z</time><speed>5.060</speed><sat>32</sat></trkpt>
  <trkpt lat="31.56085589" lon="74.85324416"><ele>179.000</ele><time>2025-02-24T12:21:54Z</time><speed>5.360</speed><sat>32</sat></trkpt>
  <trkpt lat="31.56090929" lon="74.85326579"><ele>179.000</ele><time>2025-02-24T12:21:55Z</time><speed>6.360</speed><sat>31</sat></trkpt>
  <trkpt lat="31.56101343" lon="74.85331457"><ele>179.000</ele><time>2025-02-24T12:21:57Z</time><speed>5.780</speed><sat>32</sat></trkpt>
  <trkpt lat="31.56106217" lon="74.85333452"><ele>179.000</ele><time>2025-02-24T12:21:58Z</time><speed>5.600</speed><sat>32</sat></trkpt>
  <trkpt lat="31.56110714" lon="74.85335439"><ele>179.000</ele><time>2025-02-24T12:21:59Z</time><speed>5.600</speed><sat>32</sat></trkpt>
  <trkpt lat="31.56115144" lon="74.85337190"><ele>179.000</ele><time>2025-02-24T12:22:00Z</time><speed>5.720</speed><sat>32</sat></trkpt>
  <trkpt lat="31.56119800" lon="74.85339579"><ele>179.000</ele><time>2025-02-24T12:22:01Z</time><speed>5.690</speed><sat>31</sat></trkpt>
  <trkpt lat="31.56124683" lon="74.85341876"><ele>180.000</ele><time>2025-02-24T12:22:02Z</time><speed>5.540</speed><sat>32</sat></trkpt>
  <trkpt lat="31.56129272" lon="74.85343829"><ele>180.000</ele><time>2025-02-24T12:22:03Z</time><speed>5.210</speed><sat>32</sat></trkpt>
  <trkpt lat="31.56133291" lon="74.85345882"><ele>180.000</ele><time>2025-02-24T12:22:04Z</time><speed>4.810</speed><sat>32</sat></trkpt>
  <trkpt lat="31.56136505" lon="74.85347827"><ele>180.000</ele><time>2025-02-24T12:22:05Z</time><speed>4.050</speed><sat>32</sat></trkpt>
  <trkpt lat="31.56139644" lon="74.85348950"><ele>180.000</ele><time>2025-02-24T12:22:06Z</time><speed>3.600</speed><sat>32</sat></trkpt>
  <trkpt lat="31.56142536" lon="74.85350057"><ele>180.000</ele><time>2025-02-24T12:22:07Z</time><speed>3.480</speed><sat>32</sat></trkpt>
  <trkpt lat="31.56145876" lon="74.85350987"><ele>180.000</ele><time>2025-02-24T12:22:08Z</time><speed>4.050</speed><sat>32</sat></trkpt>
  <trkpt lat="31.56149757" lon="74.85351657"><ele>180.000</ele><time>2025-02-24T12:22:09Z</time><speed>4.710</speed><sat>32</sat></trkpt>
  <trkpt lat="31.56154028" lon="74.85353552"><ele>181.000</ele><time>2025-02-24T12:22:10Z</time><speed>5.350</speed><sat>32</sat></trkpt>
  <trkpt lat="31.56158395" lon="74.85355513"><ele>180.000</ele><time>2025-02-24T12:22:11Z</time><speed>5.250</speed><sat>32</sat></trkpt>
  <trkpt lat="31.56162866" lon="74.85357064"><ele>180.000</ele><time>2025-02-24T12:22:12Z</time><speed>4.970</speed><sat>32</sat></trkpt>
  <trkpt lat="31.56167166" lon="74.85358967"><ele>180.000</ele><time>2025-02-24T12:22:13Z</time><speed>5.550</speed><sat>31</sat></trkpt>
  <trkpt lat="31.56172078" lon="74.85360903"><ele>180.000</ele><time>2025-02-24T12:22:14Z</time><speed>6.090</speed><sat>30</sat></trkpt>
  <trkpt lat="31.56177547" lon="74.85363191"><ele>180.000</ele><time>2025-02-24T12:22:15Z</time><speed>6.400</speed><sat>32</sat></trkpt>
  <trkpt lat="31.56183037" lon="74.85365219"><ele>181.000</ele><time>2025-02-24T12:22:16Z</time><speed>6.320</speed><sat>32</sat></trkpt>
  <trkpt lat="31.56188477" lon="74.85367474"><ele>181.000</ele><time>2025-02-24T12:22:17Z</time><speed>6.490</speed><sat>31</sat></trkpt>
  <trkpt lat="31.56194554" lon="74.85369947"><ele>180.000</ele><time>2025-02-24T12:22:18Z</time><speed>7.790</speed><sat>30</sat></trkpt>
  <trkpt lat="31.56200954" lon="74.85373098"><ele>180.000</ele><time>2025-02-24T12:22:19Z</time><speed>8.290</speed><sat>31</sat></trkpt>
  <trkpt lat="31.56207735" lon="74.85376175"><ele>180.000</ele><time>2025-02-24T12:22:20Z</time><speed>8.140</speed><sat>31</sat></trkpt>
  <trkpt lat="31.56215081" lon="74.85379033"><ele>180.000</ele><time>2025-02-24T12:22:21Z</time><speed>8.600</speed><sat>31</sat></trkpt>
  <trkpt lat="31.56222277" lon="74.85382838"><ele>181.000</ele><time>2025-02-24T12:22:22Z</time><speed>8.870</speed><sat>31</sat></trkpt>
  <trkpt lat="31.56229607" lon="74.85386861"><ele>181.000</ele><time>2025-02-24T12:22:23Z</time><speed>8.600</speed><sat>31</sat></trkpt>
  <trkpt lat="31.56236367" lon="74.85390835"><ele>182.000</ele><time>2025-02-24T12:22:24Z</time><speed>8.170</speed><sat>31</sat></trkpt>
  <trkpt lat="31.56243199" lon="74.85394372"><ele>182.000</ele><time>2025-02-24T12:22:25Z</time><speed>7.950</speed><sat>30</sat></trkpt>
  <trkpt lat="31.56249854" lon="74.85397859"><ele>182.000</ele><time>2025-02-24T12:22:26Z</time><speed>7.550</speed><sat>31</sat></trkpt>
  <trkpt lat="31.56255864" lon="74.85401765"><ele>182.000</ele><time>2025-02-24T12:22:27Z</time><speed>7.140</speed><sat>30</sat></trkpt>
  <trkpt lat="31.56260553" lon="74.85404405"><ele>182.000</ele><time>2025-02-24T12:22:28Z</time><speed>4.440</speed><sat>30</sat></trkpt>
  <trkpt lat="31.56262720" lon="74.85405562"><ele>182.000</ele><time>2025-02-24T12:22:29Z</time><speed>2.490</speed><sat>29</sat></trkpt>
  <trkpt lat="31.56264275" lon="74.85406148"><ele>182.000</ele><time>2025-02-24T12:22:30Z</time><speed>1.150</speed><sat>29</sat></trkpt>
  <trkpt lat="31.56264606" lon="74.85406115"><ele>182.000</ele><time>2025-02-24T12:22:31Z</time><speed>0.470</speed><sat>32</sat></trkpt>
  <trkpt lat="31.56264635" lon="74.85406492"><ele>182.000</ele><time>2025-02-24T12:22:32Z</time><speed>0.180</speed><sat>31</sat></trkpt>
  <trkpt lat="31.56264665" lon="74.85406517"><ele>182.000</ele><time>2025-02-24T12:22:33Z</time><speed>0.000</speed><sat>31</sat></trkpt>
  <trkpt lat="31.56264673" lon="74.85406534"><ele>182.000</ele><time>2025-02-24T12:22:34Z</time><speed>0.000</speed><sat>30</sat></trkpt>
  <trkpt lat="31.56264673" lon="74.85406534"><ele>182.000</ele><time>2025-02-24T12:22:35Z</time><speed>0.000</speed><sat>32</sat></trkpt>
  <trkpt lat="31.56264673" lon="74.85406534"><ele>182.000</ele><time>2025-02-24T12:22:36Z</time><speed>0.000</speed><sat>32</sat></trkpt>
  <trkpt lat="31.56264673" lon="74.85406534"><ele>182.000</ele><time>2025-02-24T12:22:37Z</time><speed>0.000</speed><sat>32</sat></trkpt>
  <trkpt lat="31.56264673" lon="74.85406534"><ele>182.000</ele><time>2025-02-24T12:22:38Z</time><speed>0.000</speed><sat>32</sat></trkpt>
  <trkpt lat="31.56264673" lon="74.85406534"><ele>182.000</ele><time>2025-02-24T12:22:39Z</time><speed>0.000</speed><sat>31</sat></trkpt>
  <trkpt lat="31.56265482" lon="74.85407003"><ele>182.000</ele><time>2025-02-24T12:22:40Z</time><speed>0.970</speed><sat>32</sat></trkpt>
  <trkpt lat="31.56266446" lon="74.85407774"><ele>182.000</ele><time>2025-02-24T12:22:41Z</time><speed>1.270</speed><sat>32</sat></trkpt>
  <trkpt lat="31.56268034" lon="74.85409828"><ele>182.000</ele><time>2025-02-24T12:22:42Z</time><speed>3.440</speed><sat>32</sat></trkpt>
  <trkpt lat="31.56272879" lon="74.85413893"><ele>181.000</ele><time>2025-02-24T12:22:44Z</time><speed>3.100</speed><sat>32</sat></trkpt>
  <trkpt lat="31.56275364" lon="74.85416248"><ele>181.000</ele><time>2025-02-24T12:22:45Z</time><speed>4.140</speed><sat>32</sat></trkpt>
  <trkpt lat="31.56279270" lon="74.85419031"><ele>181.000</ele><time>2025-02-24T12:22:46Z</time><speed>6.570</speed><sat>32</sat></trkpt>
  <trkpt lat="31.56284940" lon="74.85422275"><ele>181.000</ele><time>2025-02-24T12:22:47Z</time><speed>6.140</speed><sat>31</sat></trkpt>
  <trkpt lat="31.56290540" lon="74.85425502"><ele>181.000</ele><time>2025-02-24T12:22:48Z</time><speed>6.840</speed><sat>31</sat></trkpt>
  <trkpt lat="31.56296818" lon="74.85428805"><ele>180.000</ele><time>2025-02-24T12:22:49Z</time><speed>7.970</speed><sat>31</sat></trkpt>
  <trkpt lat="31.56303599" lon="74.85432694"><ele>180.000</ele><time>2025-02-24T12:22:50Z</time><speed>7.690</speed><sat>32</sat></trkpt>
  <trkpt lat="31.56309877" lon="74.85436491"><ele>179.000</ele><time>2025-02-24T12:22:51Z</time><speed>7.840</speed><sat>32</sat></trkpt>
  <trkpt lat="31.56316523" lon="74.85440983"><ele>179.000</ele><time>2025-02-24T12:22:52Z</time><speed>8.530</speed><sat>31</sat></trkpt>
  <trkpt lat="31.56324088" lon="74.85444990"><ele>179.000</ele><time>2025-02-24T12:22:53Z</time><speed>9.120</speed><sat>32</sat></trkpt>
  <trkpt lat="31.56331351" lon="74.85449885"><ele>179.000</ele><time>2025-02-24T12:22:54Z</time><speed>9.220</speed><sat>32</sat></trkpt>
  <trkpt lat="31.56338153" lon="74.85454939"><ele>179.000</ele><time>2025-02-24T12:22:55Z</time><speed>8.950</speed><sat>31</sat></trkpt>
  <trkpt lat="31.56345106" lon="74.85459415"><ele>179.000</ele><time>2025-02-24T12:22:56Z</time><speed>8.810</speed><sat>31</sat></trkpt>
  <trkpt lat="31.56352079" lon="74.85463640"><ele>179.000</ele><time>2025-02-24T12:22:57Z</time><speed>8.680</speed><sat>31</sat></trkpt>
  <trkpt lat="31.56366354" lon="74.85471846"><ele>180.000</ele><time>2025-02-24T12:22:59Z</time><speed>8.400</speed><sat>30</sat></trkpt>
  <trkpt lat="31.56373261" lon="74.85475542"><ele>179.000</ele><time>2025-02-24T12:23:00Z</time><speed>8.240</speed><sat>31</sat></trkpt>
  <trkpt lat="31.56379723" lon="74.85479163"><ele>179.000</ele><time>2025-02-24T12:23:01Z</time><speed>8.020</speed><sat>31</sat></trkpt>
  <trkpt lat="31.56386018" lon="74.85483061"><ele>179.000</ele><time>2025-02-24T12:23:02Z</time><speed>7.720</speed><sat>31</sat></trkpt>
  <trkpt lat="31.56392170" lon="74.85486690"><ele>179.000</ele><time>2025-02-24T12:23:03Z</time><speed>7.490</speed><sat>31</sat></trkpt>
  <trkpt lat="31.56397962" lon="74.85490554"><ele>179.000</ele><time>2025-02-24T12:23:04Z</time><speed>7.460</speed><sat>30</sat></trkpt>
  <trkpt lat="31.56404093" lon="74.85494133"><ele>179.000</ele><time>2025-02-24T12:23:05Z</time><speed>7.100</speed><sat>31</sat></trkpt>
  <trkpt lat="31.56409550" lon="74.85497897"><ele>179.000</ele><time>2025-02-24T12:23:06Z</time><speed>7.020</speed><sat>31</sat></trkpt>
  <trkpt lat="31.56415321" lon="74.85501995"><ele>179.000</ele><time>2025-02-24T12:23:07Z</time><speed>7.530</speed><sat>30</sat></trkpt>
  <trkpt lat="31.56421503" lon="74.85506295"><ele>179.000</ele><time>2025-02-24T12:23:08Z</time><speed>7.690</speed><sat>31</sat></trkpt>
  <trkpt lat="31.56427709" lon="74.85510059"><ele>179.000</ele><time>2025-02-24T12:23:09Z</time><speed>7.390</speed><sat>31</sat></trkpt>
  <trkpt lat="31.56433413" lon="74.85513755"><ele>180.000</ele><time>2025-02-24T12:23:10Z</time><speed>7.080</speed><sat>30</sat></trkpt>
  <trkpt lat="31.56438945" lon="74.85517317"><ele>180.000</ele><time>2025-02-24T12:23:11Z</time><speed>6.910</speed><sat>31</sat></trkpt>
  <trkpt lat="31.56444540" lon="74.85520796"><ele>180.000</ele><time>2025-02-24T12:23:12Z</time><speed>6.760</speed><sat>29</sat></trkpt>
  <trkpt lat="31.56450072" lon="74.85523537"><ele>180.000</ele><time>2025-02-24T12:23:13Z</time><speed>6.690</speed><sat>32</sat></trkpt>
  <trkpt lat="31.56455437" lon="74.85526605"><ele>179.000</ele><time>2025-02-24T12:23:14Z</time><speed>6.580</speed><sat>31</sat></trkpt>
  <trkpt lat="31.56460918" lon="74.85530075"><ele>179.000</ele><time>2025-02-24T12:23:15Z</time><speed>6.350</speed><sat>32</sat></trkpt>
  <trkpt lat="31.56465663" lon="74.85533478"><ele>179.000</ele><time>2025-02-24T12:23:16Z</time><speed>6.240</speed><sat>32</sat></trkpt>
  <trkpt lat="31.56470210" lon="74.85536378"><ele>179.000</ele><time>2025-02-24T12:23:17Z</time><speed>6.320</speed><sat>31</sat></trkpt>
  <trkpt lat="31.56475319" lon="74.85539261"><ele>179.000</ele><time>2025-02-24T12:23:18Z</time><speed>6.170</speed><sat>32</sat></trkpt>
  <trkpt lat="31.56480105" lon="74.85541784"><ele>179.000</ele><time>2025-02-24T12:23:19Z</time><speed>6.110</speed><sat>32</sat></trkpt>
  <trkpt lat="31.56485410" lon="74.85544039"><ele>180.000</ele><time>2025-02-24T12:23:20Z</time><speed>6.450</speed><sat>32</sat></trkpt>
  <trkpt lat="31.56490607" lon="74.85546495"><ele>180.000</ele><time>2025-02-24T12:23:21Z</time><speed>6.590</speed><sat>31</sat></trkpt>
  <trkpt lat="31.56495670" lon="74.85549747"><ele>180.000</ele><time>2025-02-24T12:23:22Z</time><speed>6.650</speed><sat>32</sat></trkpt>
  <trkpt lat="31.56500557" lon="74.85553469"><ele>179.000</ele><time>2025-02-24T12:23:23Z</time><speed>6.570</speed><sat>32</sat></trkpt>
  <trkpt lat="31.56506097" lon="74.85557207"><ele>179.000</ele><time>2025-02-24T12:23:24Z</time><speed>7.050</speed><sat>32</sat></trkpt>
  <trkpt lat="31.56518230" lon="74.85562823"><ele>179.000</ele><time>2025-02-24T12:23:26Z</time><speed>7.620</speed><sat>32</sat></trkpt>
  <trkpt lat="31.56524512" lon="74.85566117"><ele>179.000</ele><time>2025-02-24T12:23:27Z</time><speed>7.860</speed><sat>31</sat></trkpt>
  <trkpt lat="31.56531033" lon="74.85570190"><ele>179.000</ele><time>2025-02-24T12:23:28Z</time><speed>8.040</speed><sat>32</sat></trkpt>
  <trkpt lat="31.56537030" lon="74.85574448"><ele>179.000</ele><time>2025-02-24T12:23:29Z</time><speed>8.010</speed><sat>32</sat></trkpt>
  <trkpt lat="31.56543334" lon="74.85577667"><ele>178.000</ele><time>2025-02-24T12:23:30Z</time><speed>7.850</speed><sat>31</sat></trkpt>
  <trkpt lat="31.56549519" lon="74.85581581"><ele>178.000</ele><time>2025-02-24T12:23:31Z</time><speed>7.710</speed><sat>32</sat></trkpt>
  <trkpt lat="31.56555148" lon="74.85585638"><ele>178.000</ele><time>2025-02-24T12:23:32Z</time><speed>6.880</speed><sat>29</sat></trkpt>
  <trkpt lat="31.56559926" lon="74.85588337"><ele>178.000</ele><time>2025-02-24T12:23:33Z</time><speed>5.370</speed><sat>29</sat></trkpt>
  <trkpt lat="31.56563601" lon="74.85590257"><ele>178.000</ele><time>2025-02-24T12:23:34Z</time><speed>4.030</speed><sat>26</sat></trkpt>
  <trkpt lat="31.56567088" lon="74.85592050"><ele>178.000</ele><time>2025-02-24T12:23:35Z</time><speed>4.150</speed><sat>22</sat></trkpt>
  <trkpt lat="31.56570558" lon="74.85594188"><ele>178.000</ele><time>2025-02-24T12:23:36Z</time><speed>4.230</speed><sat>24</sat></trkpt>
  <trkpt lat="31.56574145" lon="74.85596661"><ele>178.000</ele><time>2025-02-24T12:23:37Z</time><speed>4.800</speed><sat>26</sat></trkpt>
  <trkpt lat="31.56578127" lon="74.85599318"><ele>178.000</ele><time>2025-02-24T12:23:38Z</time><speed>4.840</speed><sat>29</sat></trkpt>
  <trkpt lat="31.56582188" lon="74.85601371"><ele>178.000</ele><time>2025-02-24T12:23:39Z</time><speed>4.860</speed><sat>26</sat></trkpt>
  <trkpt lat="31.56586186" lon="74.85603249"><ele>178.000</ele><time>2025-02-24T12:23:40Z</time><speed>4.420</speed><sat>25</sat></trkpt>
  <trkpt lat="31.56588868" lon="74.85605445"><ele>178.000</ele><time>2025-02-24T12:23:41Z</time><speed>3.640</speed><sat>24</sat></trkpt>
  <trkpt lat="31.56591400" lon="74.85607649"><ele>178.000</ele><time>2025-02-24T12:23:42Z</time><speed>3.650</speed><sat>31</sat></trkpt>
  <trkpt lat="31.56594451" lon="74.85610315"><ele>178.000</ele><time>2025-02-24T12:23:43Z</time><speed>4.210</speed><sat>30</sat></trkpt>
  <trkpt lat="31.56597816" lon="74.85613299"><ele>178.000</ele><time>2025-02-24T12:23:44Z</time><speed>4.860</speed><sat>32</sat></trkpt>
  <trkpt lat="31.56602736" lon="74.85615109"><ele>178.000</ele><time>2025-02-24T12:23:45Z</time><speed>5.990</speed><sat>32</sat></trkpt>
  <trkpt lat="31.56608553" lon="74.85618772"><ele>178.000</ele><time>2025-02-24T12:23:46Z</time><speed>6.710</speed><sat>31</sat></trkpt>
  <trkpt lat="31.56613637" lon="74.85622217"><ele>177.000</ele><time>2025-02-24T12:23:47Z</time><speed>6.240</speed><sat>32</sat></trkpt>
  <trkpt lat="31.56618590" lon="74.85625193"><ele>177.000</ele><time>2025-02-24T12:23:48Z</time><speed>6.230</speed><sat>31</sat></trkpt>
  <trkpt lat="31.56623523" lon="74.85628260"><ele>177.000</ele><time>2025-02-24T12:23:49Z</time><speed>6.370</speed><sat>32</sat></trkpt>
  <trkpt lat="31.56628615" lon="74.85631697"><ele>176.000</ele><time>2025-02-24T12:23:50Z</time><speed>6.630</speed><sat>32</sat></trkpt>
  <trkpt lat="31.56633594" lon="74.85634639"><ele>176.000</ele><time>2025-02-24T12:23:51Z</time><speed>5.170</speed><sat>31</sat></trkpt>
  <trkpt lat="31.56636775" lon="74.85636902"><ele>177.000</ele><time>2025-02-24T12:23:52Z</time><speed>2.940</speed><sat>31</sat></trkpt>
  <trkpt lat="31.56639055" lon="74.85638696"><ele>177.000</ele><time>2025-02-24T12:23:53Z</time><speed>2.960</speed><sat>31</sat></trkpt>
  <trkpt lat="31.56641578" lon="74.85640288"><ele>177.000</ele><time>2025-02-24T12:23:54Z</time><speed>3.040</speed><sat>31</sat></trkpt>
  <trkpt lat="31.56643933" lon="74.85641998"><ele>177.000</ele><time>2025-02-24T12:23:55Z</time><speed>3.020</speed><sat>30</sat></trkpt>
  <trkpt lat="31.56646494" lon="74.85643951"><ele>177.000</ele><time>2025-02-24T12:23:56Z</time><speed>3.140</speed><sat>32</sat></trkpt>
  <trkpt lat="31.56649507" lon="74.85645695"><ele>177.000</ele><time>2025-02-24T12:23:57Z</time><speed>3.860</speed><sat>31</sat></trkpt>
  <trkpt lat="31.56652282" lon="74.85647723"><ele>177.000</ele><time>2025-02-24T12:23:58Z</time><speed>4.010</speed><sat>32</sat></trkpt>
  <trkpt lat="31.56654838" lon="74.85649592"><ele>177.000</ele><time>2025-02-24T12:23:59Z</time><speed>4.400</speed><sat>32</sat></trkpt>
  <trkpt lat="31.56658593" lon="74.85652434"><ele>178.000</ele><time>2025-02-24T12:24:00Z</time><speed>4.980</speed><sat>32</sat></trkpt>
  <trkpt lat="31.56662654" lon="74.85655208"><ele>177.000</ele><time>2025-02-24T12:24:01Z</time><speed>6.000</speed><sat>32</sat></trkpt>
  <trkpt lat="31.56668186" lon="74.85658200"><ele>178.000</ele><time>2025-02-24T12:24:02Z</time><speed>6.960</speed><sat>31</sat></trkpt>
  <trkpt lat="31.56674037" lon="74.85661771"><ele>178.000</ele><time>2025-02-24T12:24:03Z</time><speed>7.600</speed><sat>31</sat></trkpt>
  <trkpt lat="31.56680294" lon="74.85665468"><ele>178.000</ele><time>2025-02-24T12:24:04Z</time><speed>7.240</speed><sat>32</sat></trkpt>
  <trkpt lat="31.56690055" lon="74.85671042"><ele>178.000</ele><time>2025-02-24T12:24:06Z</time><speed>4.730</speed><sat>32</sat></trkpt>
  <trkpt lat="31.56693189" lon="74.85673196"><ele>178.000</ele><time>2025-02-24T12:24:07Z</time><speed>2.900</speed><sat>32</sat></trkpt>
  <trkpt lat="31.56694543" lon="74.85674428"><ele>178.000</ele><time>2025-02-24T12:24:08Z</time><speed>0.990</speed><sat>30</sat></trkpt>
  <trkpt lat="31.56694723" lon="74.85674914"><ele>178.000</ele><time>2025-02-24T12:24:09Z</time><speed>0.290</speed><sat>31</sat></trkpt>
  <trkpt lat="31.56694702" lon="74.85674956"><ele>178.000</ele><time>2025-02-24T12:24:10Z</time><speed>0.010</speed><sat>31</sat></trkpt>
  <trkpt lat="31.56694669" lon="74.85674939"><ele>178.000</ele><time>2025-02-24T12:24:11Z</time><speed>0.000</speed><sat>31</sat></trkpt>
  <trkpt lat="31.56694669" lon="74.85674939"><ele>178.000</ele><time>2025-02-24T12:24:12Z</time><speed>0.000</speed><sat>32</sat></trkpt>
  <trkpt lat="31.56694669" lon="74.85674939"><ele>178.000</ele><time>2025-02-24T12:24:13Z</time><speed>0.000</speed><sat>31</sat></trkpt>
  <trkpt lat="31.56694669" lon="74.85674939"><ele>178.000</ele><time>2025-02-24T12:24:14Z</time><speed>0.000</speed><sat>30</sat></trkpt>
  <trkpt lat="31.56694669" lon="74.85674939"><ele>178.000</ele><time>2025-02-24T12:24:15Z</time><speed>0.000</speed><sat>30</sat></trkpt>
  <trkpt lat="31.56694669" lon="74.85674939"><ele>178.000</ele><time>2025-02-24T12:24:16Z</time><speed>0.000</speed><sat>32</sat></trkpt>
  <trkpt lat="31.56694669" lon="74.85674939"><ele>178.000</ele><time>2025-02-24T12:24:17Z</time><speed>0.000</speed><sat>32</sat></trkpt>
  <trkpt lat="31.56694669" lon="74.85674939"><ele>178.000</ele><time>2025-02-24T12:24:18Z</time><speed>0.000</speed><sat>30</sat></trkpt>
  <trkpt lat="31.56694669" lon="74.85674939"><ele>178.000</ele><time>2025-02-24T12:24:19Z</time><speed>0.000</speed><sat>32</sat></trkpt>
  <trkpt lat="31.56694669" lon="74.85674939"><ele>178.000</ele><time>2025-02-24T12:24:20Z</time><speed>0.000</speed><sat>31</sat></trkpt>
  <trkpt lat="31.56694669" lon="74.85674939"><ele>178.000</ele><time>2025-02-24T12:24:21Z</time><speed>0.000</speed><sat>31</sat></trkpt>
 </trkseg>
</trk>

</gpx>